<?xml version='1.0' encoding='UTF-8'?>
<osm version="0.6" generator="osmfilter 1.4.5">
	<bounds minlat="41.9846" minlon="21.394" maxlat="42.0063" maxlon="21.4518"/>
	<node id="1381606894" lat="41.986937" lon="21.4346369" version="2" timestamp="2011-08-11T13:53:55Z" changeset="8985335" uid="70696" user="xybot">
		<tag k="amenity" v="hospital"/>
		<tag k="name" v="Адриалаб"/>
	</node>
	<node id="1747627317" lat="41.986065" lon="21.4331367" version="1" timestamp="2012-05-10T15:20:27Z" changeset="11559823" uid="678915" user="dominator7">
		<tag k="amenity" v="hospital"/>
	</node>
	<node id="4125379517" lat="42.0009982" lon="21.4128098" version="4" timestamp="2017-12-01T23:11:34Z" changeset="54253256" uid="6970734" user="Dekacc">
		<tag k="addr:city" v="Cкoпje"/>
		<tag k="addr:postcode" v="1000"/>
		<tag k="addr:street" v="Булевар Партизански Одреди"/>
		<tag k="amenity" v="hospital"/>
		<tag k="name" v="Центар за ментално здравје"/>
		<tag k="name:en" v="Center for mental health"/>
		<tag k="operator" v="Министерство за здравство"/>
	</node>
	<node id="4125379518" lat="42.0010726" lon="21.4130411" version="3" timestamp="2017-12-01T23:11:34Z" changeset="54253256" uid="6970734" user="Dekacc">
		<tag k="addr:city" v="Cкoпje"/>
		<tag k="addr:postcode" v="1000"/>
		<tag k="addr:street" v="Булевар Партизански Одреди"/>
		<tag k="amenity" v="hospital"/>
		<tag k="name" v="ПЗУ „Д-р Горица“"/>
		<tag k="name:en" v="PZU &#34;D-r Gorica&#34;"/>
	</node>
	<node id="4138200603" lat="42.0005964" lon="21.4145316" version="3" timestamp="2018-04-13T14:33:52Z" changeset="58066445" uid="6970734" user="Dekacc">
		<tag k="amenity" v="hospital"/>
		<tag k="name" v="Неуромедика"/>
		<tag k="name:en" v="Neuromedika"/>
	</node>
	<node id="4776265422" lat="42.0035328" lon="21.4407164" version="1" timestamp="2017-04-05T07:00:14Z" changeset="47465741" uid="5617707" user="Сако М">
		<tag k="amenity" v="hospital"/>
		<tag k="name" v="ЈЗУ ЗДРАВСТВЕН ДОМ"/>
	</node>
	<node id="5130474890" lat="41.9933702" lon="21.4271939" version="1" timestamp="2017-09-26T10:20:31Z" changeset="52380711" uid="361707" user="0xF00F">
		<tag k="amenity" v="hospital"/>
		<tag k="name" v="Здравствен дом „Железничар“"/>
		<tag k="name:en" v="Železničar Health Centre"/>
	</node>
	<node id="7027084885" lat="41.9919437" lon="21.4235554" version="1" timestamp="2019-12-02T20:17:33Z" changeset="77841054" uid="10517616" user="DemonHyper">
		<tag k="amenity" v="hospital"/>
		<tag k="name" v="Стоматолошка Ординација"/>
		<tag k="name:en" v="Dentist"/>
	</node>
	<way id="28212175" version="7" timestamp="2021-12-07T15:55:00Z" changeset="114666597" uid="7140745" user="MatejMecka">
		<nd ref="309867133"/>
		<nd ref="309867134"/>
		<nd ref="8635010483"/>
		<nd ref="309867135"/>
		<nd ref="8635010470"/>
		<nd ref="309867137"/>
		<nd ref="3650810528"/>
		<nd ref="3650810327"/>
		<nd ref="5305559568"/>
		<nd ref="309867133"/>
		<tag k="amenity" v="hospital"/>
		<tag k="healthcare" v="hospital"/>
		<tag k="name" v="Поликлиника Букурешт"/>
	</way>
	<way id="28212201" version="9" timestamp="2021-03-11T19:47:18Z" changeset="100861891" uid="11675352" user="jdamjan">
		<nd ref="309867277"/>
		<nd ref="309867278"/>
		<nd ref="4133414551"/>
		<nd ref="4133414554"/>
		<nd ref="309867279"/>
		<nd ref="1868812091"/>
		<nd ref="309867280"/>
		<nd ref="1868812163"/>
		<nd ref="309867277"/>
		<tag k="addr:city" v="Cкoпje"/>
		<tag k="addr:housenumber" v="бб"/>
		<tag k="addr:postcode" v="1020"/>
		<tag k="addr:street" v="Бледски Договор"/>
		<tag k="amenity" v="hospital"/>
		<tag k="email" v="info@bolnica.org.mk"/>
		<tag k="emergency" v="yes"/>
		<tag k="fax" v="+389 2 3072125"/>
		<tag k="healthcare" v="hospital"/>
		<tag k="healthcare:speciality" v="general"/>
		<tag k="name" v="ГОБ „8 Септември“"/>
		<tag k="operator" v="Министерство за Здравство"/>
		<tag k="operator:type" v="government"/>
		<tag k="phone" v="+389 2 3087400"/>
		<tag k="website" v="http://bolnica.org.mk"/>
		<tag k="wheelchair" v="yes"/>
	</way>
	<way id="32687572" version="11" timestamp="2019-08-19T19:44:13Z" changeset="73513109" uid="1730904" user="donovaly">
		<nd ref="367836127"/>
		<nd ref="367836128"/>
		<nd ref="367836129"/>
		<nd ref="367836130"/>
		<nd ref="367836131"/>
		<nd ref="367836132"/>
		<nd ref="367836133"/>
		<nd ref="367836135"/>
		<nd ref="367836137"/>
		<nd ref="367836139"/>
		<nd ref="6724958093"/>
		<nd ref="6724958094"/>
		<nd ref="6724958095"/>
		<nd ref="6724958096"/>
		<nd ref="367836141"/>
		<nd ref="6724958119"/>
		<nd ref="3832632307"/>
		<nd ref="5104528435"/>
		<nd ref="367836145"/>
		<nd ref="367836127"/>
		<tag k="addr:street" v="Булевар Мајка Тереза"/>
		<tag k="amenity" v="hospital"/>
		<tag k="emergency" v="yes"/>
		<tag k="name" v="Клинички центар - Државна болница"/>
		<tag k="opening_hours" v="24/7"/>
	</way>
	<way id="37998632" version="7" timestamp="2017-12-16T14:51:49Z" changeset="54681982" uid="6970734" user="Dekacc">
		<nd ref="446285590"/>
		<nd ref="5287633658"/>
		<nd ref="446285591"/>
		<nd ref="446285593"/>
		<nd ref="446285594"/>
		<nd ref="5287633663"/>
		<nd ref="5287633662"/>
		<nd ref="446285601"/>
		<nd ref="5287633661"/>
		<nd ref="5287633660"/>
		<nd ref="446285606"/>
		<nd ref="446285618"/>
		<nd ref="5287633664"/>
		<nd ref="446285627"/>
		<nd ref="446285630"/>
		<nd ref="446285638"/>
		<nd ref="446285641"/>
		<nd ref="446285649"/>
		<nd ref="446285652"/>
		<nd ref="446285655"/>
		<nd ref="446285656"/>
		<nd ref="5287633659"/>
		<nd ref="446285659"/>
		<nd ref="446285661"/>
		<nd ref="446285667"/>
		<nd ref="446285669"/>
		<nd ref="446285590"/>
		<tag k="addr:city" v="Cкoпje"/>
		<tag k="addr:city:en" v="Skopje"/>
		<tag k="addr:country" v="MK"/>
		<tag k="addr:postcode" v="1000"/>
		<tag k="amenity" v="hospital"/>
		<tag k="building" v="yes"/>
		<tag k="name" v="Институт по белодробни заболувања кај децата - Козле"/>
	</way>
	<way id="38082546" version="8" timestamp="2015-07-11T19:03:02Z" changeset="32568965" uid="1468248" user="TheBlackMan">
		<nd ref="447906076"/>
		<nd ref="447906078"/>
		<nd ref="447906079"/>
		<nd ref="447906081"/>
		<nd ref="447906076"/>
		<tag k="addr:city" v="Cкoпje"/>
		<tag k="addr:city:en" v="Skopje"/>
		<tag k="addr:country" v="MK"/>
		<tag k="addr:housenumber" v="44"/>
		<tag k="addr:postcode" v="1000"/>
		<tag k="addr:street" v="Миле Поп Јорданов"/>
		<tag k="addr:street:en" v="Mile Pop Jordanov"/>
		<tag k="amenity" v="hospital"/>
		<tag k="building" v="yes"/>
		<tag k="name" v="Рес Хумана ординација"/>
	</way>
	<way id="152448287" version="1" timestamp="2012-02-29T10:46:38Z" changeset="10826650" uid="480785" user="BNicovski">
		<nd ref="1652685365"/>
		<nd ref="1652685364"/>
		<nd ref="1652685367"/>
		<nd ref="1652685372"/>
		<nd ref="1652685365"/>
		<tag k="amenity" v="hospital"/>
		<tag k="name" v="Ординација Срце"/>
	</way>
	<way id="164191033" version="4" timestamp="2017-12-16T23:03:24Z" changeset="54692334" uid="6970734" user="Dekacc">
		<nd ref="1758468903"/>
		<nd ref="5288522423"/>
		<nd ref="5288522424"/>
		<nd ref="1758468941"/>
		<nd ref="1758468912"/>
		<nd ref="1359271238"/>
		<nd ref="1758468916"/>
		<nd ref="5288522425"/>
		<nd ref="1758468903"/>
		<tag k="addr:city" v="Cкoпje"/>
		<tag k="addr:city:en" v="Skopje"/>
		<tag k="addr:country" v="MK"/>
		<tag k="addr:housenumber" v="28"/>
		<tag k="addr:postcode" v="1000"/>
		<tag k="addr:street" v="Митрополит Теодосиј Гологанов"/>
		<tag k="amenity" v="hospital"/>
		<tag k="building" v="yes"/>
		<tag k="name" v="Др. Анчевски"/>
		<tag k="wheelchair" v="limited"/>
	</way>
	<way id="175516639" version="6" timestamp="2016-04-27T16:47:38Z" changeset="38926255" uid="1468248" user="TheBlackMan">
		<nd ref="1860925731"/>
		<nd ref="4151702373"/>
		<nd ref="1860925748"/>
		<nd ref="1860925752"/>
		<nd ref="1860925759"/>
		<nd ref="1860925726"/>
		<nd ref="4151702381"/>
		<nd ref="1860925728"/>
		<nd ref="1860925725"/>
		<nd ref="1860925750"/>
		<nd ref="1860925758"/>
		<nd ref="4151702372"/>
		<nd ref="1860925731"/>
		<tag k="addr:city" v="Cкoпje"/>
		<tag k="addr:city:en" v="Skopje"/>
		<tag k="addr:country" v="MK"/>
		<tag k="addr:postcode" v="1000"/>
		<tag k="amenity" v="hospital"/>
		<tag k="building" v="yes"/>
		<tag k="emergency" v="yes"/>
		<tag k="name" v="Поликлиника Идадија - Млин Балкан"/>
	</way>
	<way id="176173911" version="4" timestamp="2017-09-05T04:13:35Z" changeset="51736086" uid="1815671" user="coloredstone">
		<nd ref="1867272078"/>
		<nd ref="1867268181"/>
		<nd ref="358090036"/>
		<nd ref="1867268183"/>
		<nd ref="1867268154"/>
		<nd ref="5078223567"/>
		<nd ref="5078223557"/>
		<nd ref="1867268159"/>
		<nd ref="1867272083"/>
		<nd ref="1867272078"/>
		<tag k="amenity" v="hospital"/>
		<tag k="name" v="Завод за физикална медицина и рехабилитација"/>
	</way>
	<way id="179747888" version="3" timestamp="2016-11-25T09:35:52Z" changeset="43940203" uid="2242362" user="e8aga9f">
		<nd ref="1901878252"/>
		<nd ref="1901878132"/>
		<nd ref="3787571417"/>
		<nd ref="3787571405"/>
		<nd ref="3787571432"/>
		<nd ref="1901878297"/>
		<nd ref="4520377165"/>
		<nd ref="4520377168"/>
		<nd ref="1901878160"/>
		<nd ref="1901878252"/>
		<tag k="amenity" v="hospital"/>
		<tag k="name" v="Центар за Јавно Здравје - Пролет"/>
	</way>
	<way id="408840915" version="7" timestamp="2021-05-19T09:54:15Z" changeset="104948887" uid="7140745" user="MatejMecka">
		<nd ref="4107484486"/>
		<nd ref="4107484487"/>
		<nd ref="5296448627"/>
		<nd ref="5296448628"/>
		<nd ref="5296448629"/>
		<nd ref="5296448630"/>
		<nd ref="4107484488"/>
		<nd ref="4107484889"/>
		<nd ref="4107484486"/>
		<tag k="addr:city" v="Cкoпje"/>
		<tag k="addr:housenumber" v="8"/>
		<tag k="addr:postcode" v="1020"/>
		<tag k="addr:street" v="Бледски Договор"/>
		<tag k="amenity" v="hospital"/>
		<tag k="building" v="hospital"/>
		<tag k="email" v="infosalter@zmc.mk"/>
		<tag k="emergency" v="yes"/>
		<tag k="healthcare" v="hospital"/>
		<tag k="healthcare:speciality" v="cardiology"/>
		<tag k="name" v="Клиника Болница Жан Митрев"/>
		<tag k="name:en" v="Zan Mitrev Clinic"/>
		<tag k="phone" v="+389 2 3091 484"/>
		<tag k="website" v="https://zmc.mk/"/>
	</way>
	<relation id="4081495" version="3" timestamp="2018-03-13T17:51:52Z" changeset="57152844" uid="6444111" user="Milan Petkovski">
		<member type="way" ref="32490168" role="outer"/>
		<member type="way" ref="305981470" role="inner"/>
		<member type="way" ref="305981471" role="inner"/>
		<tag k="addr:city" v="Cкoпje"/>
		<tag k="addr:city:en" v="Skopje"/>
		<tag k="addr:country" v="MK"/>
		<tag k="addr:postcode" v="1000"/>
		<tag k="addr:street" v="Даме Груев"/>
		<tag k="amenity" v="hospital"/>
		<tag k="building" v="yes"/>
		<tag k="building:levels" v="3"/>
		<tag k="int_name" v="Gradska Bolnica"/>
		<tag k="name" v="Градска болница"/>
		<tag k="name:en" v="City Hospital"/>
		<tag k="name:mk" v="Градски клинички центар"/>
		<tag k="phone" v="+3892 323 5020"/>
		<tag k="type" v="multipolygon"/>
		<tag k="website" v="http://www.gradskahirurgija.org.mk"/>
	</relation>
</osm>
