<?xml version='1.0' encoding='UTF-8'?>
<osm version="0.6" generator="osmfilter 1.4.5">
	<bounds minlat="41.9846" minlon="21.394" maxlat="42.0063" maxlon="21.4518"/>
	<node id="309894643" lat="41.9953933" lon="21.4315704" version="12" timestamp="2019-03-23T20:42:37Z" changeset="68454789" uid="9451067" user="b-jazz-bot">
		<tag k="addr:city" v="Скопје"/>
		<tag k="addr:postcode" v="1000"/>
		<tag k="addr:street" v="Плоштад Македонија"/>
		<tag k="alt_name" v="Дал Мет Фу"/>
		<tag k="amenity" v="restaurant"/>
		<tag k="cuisine" v="italian"/>
		<tag k="int_name" v="Pelister"/>
		<tag k="name" v="Пелистер"/>
		<tag k="name:en" v="Pelister"/>
		<tag k="opening_hours" v="Mo-Th 07:00-00:00; Fr-Sa 07:00-01:00; Su 10:30-00:00"/>
		<tag k="website" v="https://www.pelisterhotel.com.mk/"/>
		<tag k="wheelchair" v="yes"/>
		<tag k="wheelchair:description" v="Toilet not accessible"/>
	</node>
	<node id="411006922" lat="41.9947432" lon="21.4140669" version="6" timestamp="2016-04-09T20:05:26Z" changeset="38437093" uid="344903" user="Toyota_79">
		<tag k="amenity" v="restaurant"/>
		<tag k="name" v="Интермецо"/>
	</node>
	<node id="459668143" lat="42.0047876" lon="21.4307036" version="3" timestamp="2012-08-16T14:52:32Z" changeset="12751798" uid="131662" user="borces">
		<tag k="amenity" v="restaurant"/>
		<tag k="name" v="Под Кале"/>
	</node>
	<node id="459668914" lat="41.9943261" lon="21.4342799" version="8" timestamp="2021-03-04T14:05:10Z" changeset="100428008" uid="7140745" user="MatejMecka">
		<tag k="amenity" v="restaurant"/>
		<tag k="cuisine" v="italian"/>
		<tag k="email" v="contact@restorangino.mk"/>
		<tag k="level" v="1"/>
		<tag k="name" v="Кај Џино"/>
		<tag k="name:en" v="Gino"/>
		<tag k="opening_hours" v="Mo 08:00-24:00, Tu,We,Fr,Sa 09:00-24:00, Th 09:00-23:00, Su 09:00-01:00"/>
		<tag k="outdoor_seating" v="yes"/>
		<tag k="phone" v="+389 2 3121109"/>
		<tag k="sells:ice_cream" v="yes"/>
		<tag k="smoking" v="outside"/>
		<tag k="website" v="http://www.restorangino.mk/"/>
	</node>
	<node id="459669063" lat="41.9952456" lon="21.4350117" version="17" timestamp="2021-01-31T17:23:17Z" changeset="98458677" uid="1468248" user="TheBlackMan">
		<tag k="addr:city" v="Cкoпje"/>
		<tag k="addr:city:en" v="Skopje"/>
		<tag k="addr:country" v="MK"/>
		<tag k="addr:housename" v="Gradski Trgovski Centar Skopje"/>
		<tag k="addr:postcode" v="1000"/>
		<tag k="addr:street" v="Кеј 13 Ноември"/>
		<tag k="addr:street:en" v="Kay 13th November"/>
		<tag k="amenity" v="restaurant"/>
		<tag k="cuisine" v="latin_american"/>
		<tag k="int_name" v="Plaza de Toros"/>
		<tag k="name" v="Плаза де Торос"/>
	</node>
	<node id="481098096" lat="42.0031464" lon="21.3995191" version="5" timestamp="2018-11-25T10:40:15Z" changeset="64863318" uid="6970734" user="Dekacc">
		<tag k="amenity" v="restaurant"/>
		<tag k="cuisine" v="italian"/>
		<tag k="name" v="Енрико"/>
	</node>
	<node id="696669231" lat="41.9869006" lon="21.4368796" version="2" timestamp="2015-10-15T11:24:49Z" changeset="34652461" uid="131662" user="borces">
		<tag k="amenity" v="restaurant"/>
		<tag k="name" v="иВ"/>
		<tag k="name:en" v="iV"/>
	</node>
	<node id="908273433" lat="42.0003099" lon="21.4367576" version="3" timestamp="2015-06-25T15:48:05Z" changeset="32208128" uid="1468248" user="TheBlackMan">
		<tag k="amenity" v="restaurant"/>
		<tag k="cuisine" v="regional"/>
		<tag k="name" v="Туpиcт"/>
		<tag k="name:en" v="Turist"/>
	</node>
	<node id="1371716593" lat="41.9979155" lon="21.4122694" version="2" timestamp="2018-11-24T21:52:44Z" changeset="64854833" uid="6970734" user="Dekacc">
		<tag k="addr:housenumber" v="25"/>
		<tag k="addr:street" v="Рузвелтова"/>
		<tag k="amenity" v="restaurant"/>
		<tag k="name" v="Топаз"/>
	</node>
	<node id="1372568001" lat="42.000855" lon="21.3989291" version="2" timestamp="2011-07-24T16:55:47Z" changeset="8817781" uid="480785" user="BNicovski">
		<tag k="addr:housenumber" v="14"/>
		<tag k="addr:street" v="Варшавска"/>
		<tag k="amenity" v="restaurant"/>
		<tag k="name" v="Веки"/>
	</node>
	<node id="1380378665" lat="41.9997295" lon="21.4078483" version="4" timestamp="2021-02-22T11:17:20Z" changeset="99740747" uid="7140745" user="MatejMecka">
		<tag k="addr:housenumber" v="6"/>
		<tag k="addr:postcode" v="1000"/>
		<tag k="addr:street" v="Римска"/>
		<tag k="amenity" v="restaurant"/>
		<tag k="cuisine" v="burger;regional;breakfast;grill;mediterranean;balkan;chicken;kebab"/>
		<tag k="email" v="dinamic.ksk@gmail.com"/>
		<tag k="internet_access" v="wlan"/>
		<tag k="name" v="Рустикана"/>
		<tag k="name:en" v="Rustikana"/>
		<tag k="opening_hours" v="Mo-Su 10:00-00:00"/>
		<tag k="operator" v="Saso Gligorovski Tate"/>
		<tag k="phone" v="+38971383382"/>
	</node>
	<node id="1380378702" lat="41.9985008" lon="21.415982" version="3" timestamp="2017-03-30T20:04:18Z" changeset="47304492" uid="344903" user="Toyota_79">
		<tag k="amenity" v="restaurant"/>
		<tag k="name" v="Боеми"/>
	</node>
	<node id="1577483516" lat="42.0035286" lon="21.3975417" version="5" timestamp="2018-01-11T17:26:52Z" changeset="55358280" uid="6970734" user="Dekacc">
		<tag k="alt_name" v="Старо буре"/>
		<tag k="amenity" v="restaurant"/>
		<tag k="cuisine" v="international"/>
		<tag k="int_name" v="Staro Bure"/>
		<tag k="name" v="Старо Буре"/>
	</node>
	<node id="1747649203" lat="41.9946274" lon="21.4151525" version="2" timestamp="2020-09-16T19:47:27Z" changeset="91005096" uid="8525987" user="Anoesis">
		<tag k="amenity" v="restaurant"/>
		<tag k="name" v="Крчма"/>
	</node>
	<node id="1748017584" lat="41.9904847" lon="21.4204907" version="3" timestamp="2015-04-28T13:26:50Z" changeset="30581469" uid="678915" user="dominator7">
		<tag k="addr:city" v="Скопје"/>
		<tag k="amenity" v="restaurant"/>
		<tag k="cuisine" v="regional"/>
		<tag k="name" v="Marana"/>
		<tag k="takeaway" v="yes"/>
	</node>
	<node id="1751563134" lat="41.9947645" lon="21.4245254" version="7" timestamp="2019-05-11T16:08:18Z" changeset="70141270" uid="361707" user="0xF00F">
		<tag k="addr:city" v="Cкoпje"/>
		<tag k="addr:city:en" v="Skopje"/>
		<tag k="addr:country" v="MK"/>
		<tag k="addr:housenumber" v="66"/>
		<tag k="addr:street" v="Булевар Климент Охридски"/>
		<tag k="addr:street:en" v="Kliment Ohridski Boulevard"/>
		<tag k="amenity" v="restaurant"/>
		<tag k="cuisine" v="international"/>
		<tag k="internet_access" v="wlan"/>
		<tag k="internet_access:fee" v="no"/>
		<tag k="name" v="Pastel Wine &#38; Dine"/>
		<tag k="name:en" v="Pastel Wine &#38; Dine"/>
		<tag k="opening_hours" v="Mo-Fr 06:30-21:00; Sa 06:30-17:00; Su 06:30-16:00"/>
		<tag k="payment:american_express" v="no"/>
		<tag k="payment:coins" v="yes"/>
		<tag k="payment:maestro" v="yes"/>
		<tag k="payment:mastercard" v="yes"/>
		<tag k="payment:notes" v="yes"/>
		<tag k="payment:visa" v="yes"/>
		<tag k="payment:visa_electron" v="yes"/>
		<tag k="phone" v="+389 2 3214447"/>
		<tag k="smoking" v="outside"/>
		<tag k="takeaway" v="yes"/>
		<tag k="website" v="http://pastel.mk/"/>
		<tag k="wheelchair" v="yes"/>
	</node>
	<node id="1752178268" lat="41.9922398" lon="21.4163482" version="2" timestamp="2012-10-27T18:32:16Z" changeset="13652855" uid="398751" user="arangel">
		<tag k="amenity" v="restaurant"/>
		<tag k="cuisine" v="italian"/>
		<tag k="name" v="511"/>
	</node>
	<node id="1752186795" lat="41.9972291" lon="21.4086601" version="3" timestamp="2020-01-15T15:06:52Z" changeset="79611974" uid="131662" user="borces">
		<tag k="amenity" v="restaurant"/>
		<tag k="name" v="Акорд"/>
		<tag k="name:en" v="Acorde"/>
	</node>
	<node id="1770866402" lat="41.9987097" lon="21.4207447" version="6" timestamp="2021-02-22T11:46:11Z" changeset="99743137" uid="7140745" user="MatejMecka">
		<tag k="addr:housename" v="libertas"/>
		<tag k="addr:postcode" v="1000"/>
		<tag k="addr:street" v="T.C Bunjakovec prv kat lok 36"/>
		<tag k="amenity" v="restaurant"/>
		<tag k="cuisine" v="pizza"/>
		<tag k="description" v="Coffee&#38;pizza restaurant Libertas"/>
		<tag k="name" v="Пицерија Либертас"/>
		<tag k="phone" v="+38970567295"/>
	</node>
	<node id="1867176020" lat="41.9957062" lon="21.4304595" version="7" timestamp="2019-03-17T10:38:39Z" changeset="68224767" uid="6970734" user="Dekacc">
		<tag k="amenity" v="restaurant"/>
		<tag k="cuisine" v="international"/>
		<tag k="int_name" v="Trend"/>
		<tag k="name" v="Тренд"/>
		<tag k="name:en" v="Trend"/>
		<tag k="wheelchair" v="limited"/>
		<tag k="wheelchair:description" v="Toilet not accessible"/>
	</node>
	<node id="1868812117" lat="41.9987513" lon="21.4204158" version="6" timestamp="2021-02-28T19:46:06Z" changeset="100153932" uid="7140745" user="MatejMecka">
		<tag k="addr:city" v="Cкoпje"/>
		<tag k="addr:postcode" v="1000"/>
		<tag k="addr:street" v="Владимир Полежановски"/>
		<tag k="amenity" v="restaurant"/>
		<tag k="cuisine" v="barbecue"/>
		<tag k="name" v="Дестан"/>
		<tag k="opening_hours" v="Mo-Su 09:00-23:00"/>
		<tag k="outdoor_seating" v="yes"/>
		<tag k="phone" v="+38923127324"/>
		<tag k="smoking" v="separated"/>
		<tag k="website" v="https://destan.mk/pocetna/"/>
	</node>
	<node id="1868812169" lat="42.0034064" lon="21.3995909" version="1" timestamp="2012-08-16T16:40:33Z" changeset="12752876" uid="131662" user="borces">
		<tag k="amenity" v="restaurant"/>
		<tag k="cuisine" v="barbecue"/>
		<tag k="name" v="Ана Кристи"/>
	</node>
	<node id="1868933572" lat="42.0017742" lon="21.3992299" version="1" timestamp="2012-08-16T18:36:48Z" changeset="12753723" uid="131662" user="borces">
		<tag k="amenity" v="restaurant"/>
		<tag k="cuisine" v="macedonian"/>
		<tag k="name" v="Фотка"/>
	</node>
	<node id="1985948203" lat="41.9922245" lon="21.416522" version="1" timestamp="2012-10-27T18:33:16Z" changeset="13652855" uid="398751" user="arangel">
		<tag k="amenity" v="restaurant"/>
		<tag k="cuisine" v="italian"/>
		<tag k="name" v="Balila"/>
	</node>
	<node id="1999633538" lat="41.9913688" lon="21.4280088" version="5" timestamp="2017-12-17T13:10:46Z" changeset="54702866" uid="6970734" user="Dekacc">
		<tag k="amenity" v="restaurant"/>
		<tag k="name" v="Бифиња - Рамстор"/>
		<tag k="name:en" v="Food Court Ramstore"/>
	</node>
	<node id="2105387352" lat="42.0001581" lon="21.4252581" version="4" timestamp="2015-05-07T19:43:30Z" changeset="30883452" uid="1468248" user="TheBlackMan">
		<tag k="addr:city" v="Скопје"/>
		<tag k="addr:city:en" v="Skopje"/>
		<tag k="addr:country" v="MK"/>
		<tag k="addr:housenumber" v="75"/>
		<tag k="addr:street" v="Орце Николов"/>
		<tag k="addr:street:en" v="Orce Nikolov"/>
		<tag k="amenity" v="restaurant"/>
		<tag k="int_name" v="Brukilnski"/>
		<tag k="name" v="Бруклински"/>
		<tag k="name:en" v="Bruklinski"/>
		<tag k="outdoor_seating" v="yes"/>
		<tag k="phone" v="+389 2 6091844"/>
		<tag k="smoking" v="separated"/>
		<tag k="wheelchair" v="limited"/>
	</node>
	<node id="2159535851" lat="41.9953199" lon="21.4347685" version="11" timestamp="2019-05-16T13:11:25Z" changeset="70318404" uid="158784" user="bjankuloski">
		<tag k="addr:city" v="Cкoпje"/>
		<tag k="addr:city:en" v="Skopje"/>
		<tag k="addr:country" v="MK"/>
		<tag k="addr:housename" v="Gradski Trgovski Centar Skopje"/>
		<tag k="addr:housenumber" v="2/4"/>
		<tag k="addr:postcode" v="1000"/>
		<tag k="addr:street" v="Кеј 13 Ноември"/>
		<tag k="addr:street:en" v="Kay 13th November"/>
		<tag k="amenity" v="restaurant"/>
		<tag k="cuisine" v="international"/>
		<tag k="name" v="Бела виста"/>
		<tag k="name:en" v="Bella Vista"/>
		<tag k="opening_hours" v="10:00-24:00, Fr-Sa 10:00-01:00"/>
		<tag k="website" v="www.bellavistaskopje.mk"/>
	</node>
	<node id="2294320125" lat="41.993167" lon="21.4080594" version="2" timestamp="2016-05-11T11:30:24Z" changeset="39239783" uid="131662" user="borces">
		<tag k="amenity" v="restaurant"/>
		<tag k="name" v="Два Елена"/>
		<tag k="name:en" v="Dva Elena"/>
	</node>
	<node id="2322886873" lat="41.9952825" lon="21.4302915" version="2" timestamp="2013-05-28T13:45:06Z" changeset="16324087" uid="131662" user="borces">
		<tag k="amenity" v="restaurant"/>
		<tag k="cuisine" v="regional"/>
		<tag k="int_name" v="Arabeska"/>
		<tag k="name" v="Арабеска"/>
		<tag k="name:en" v="Arabesque"/>
	</node>
	<node id="2818872887" lat="42.0051241" lon="21.4145137" version="4" timestamp="2018-04-13T23:55:16Z" changeset="58078993" uid="6970734" user="Dekacc">
		<tag k="addr:city" v="Cкoпje"/>
		<tag k="addr:postcode" v="1000"/>
		<tag k="addr:street" v="Драган Ѓаконовски Шпато"/>
		<tag k="amenity" v="restaurant"/>
		<tag k="int_name" v="Sokače"/>
		<tag k="name" v="Сокаче"/>
		<tag k="name:en" v="Sokache"/>
		<tag k="opening_hours" v="08:00 - 00:00"/>
	</node>
	<node id="3101726040" lat="42.0000179" lon="21.4366005" version="2" timestamp="2015-06-25T15:48:03Z" changeset="32208128" uid="1468248" user="TheBlackMan">
		<tag k="addr:city" v="Cкoпje"/>
		<tag k="addr:city:en" v="Skopje"/>
		<tag k="addr:country" v="MK"/>
		<tag k="addr:housename" v="Капан АН"/>
		<tag k="addr:housename:en" v="Kapan AN"/>
		<tag k="addr:housenumber" v="14"/>
		<tag k="addr:postcode" v="1000"/>
		<tag k="addr:street" v="Градиште"/>
		<tag k="addr:street:en" v="Gradiste"/>
		<tag k="amenity" v="restaurant"/>
		<tag k="cuisine" v="regional"/>
		<tag k="email" v="pivnicaan@yahoo.com"/>
		<tag k="internet_access" v="wlan"/>
		<tag k="internet_access:fee" v="no"/>
		<tag k="name" v="Пивница АН"/>
		<tag k="name:en" v="Beerhouse AN"/>
		<tag k="opening_hours" v="Mo-Sa 09:00-24:00; Su 12:00-24:00"/>
		<tag k="outdoor_seating" v="yes"/>
		<tag k="payment:american_express" v="yes"/>
		<tag k="payment:coins" v="yes"/>
		<tag k="payment:mastercard" v="yes"/>
		<tag k="payment:notes" v="yes"/>
		<tag k="payment:visa" v="yes"/>
		<tag k="phone" v="+389 02 321 2111"/>
		<tag k="smoking" v="separated"/>
		<tag k="website" v="http://pivnicaan.mk/"/>
	</node>
	<node id="3341289789" lat="41.9925716" lon="21.4297981" version="4" timestamp="2018-04-26T18:35:28Z" changeset="58453516" uid="6970734" user="Dekacc">
		<tag k="addr:city" v="Скопје"/>
		<tag k="addr:postcode" v="1000"/>
		<tag k="addr:street" v="Македонија"/>
		<tag k="amenity" v="restaurant"/>
		<tag k="name" v="Damaskino"/>
	</node>
	<node id="3484100384" lat="41.9917018" lon="21.4231542" version="2" timestamp="2017-01-13T12:23:59Z" changeset="45130577" uid="131662" user="borces">
		<tag k="addr:city" v="Скопје"/>
		<tag k="amenity" v="restaurant"/>
		<tag k="name" v="Dal Fufo - Galija"/>
	</node>
	<node id="3505013893" lat="41.9947506" lon="21.4319604" version="3" timestamp="2018-01-16T17:01:30Z" changeset="55499236" uid="6970734" user="Dekacc">
		<tag k="addr:city" v="Скопје"/>
		<tag k="addr:city:en" v="Skopje"/>
		<tag k="addr:country" v="MK"/>
		<tag k="addr:postcode" v="1000"/>
		<tag k="addr:street" v="11 Октомври"/>
		<tag k="addr:street:en" v="11 Oktomvri"/>
		<tag k="amenity" v="restaurant"/>
		<tag k="cuisine" v="kebab"/>
		<tag k="name" v="Destan"/>
		<tag k="opening_hours" v="08:00-23:00"/>
		<tag k="outdoor_seating" v="yes"/>
		<tag k="smoking" v="separated"/>
		<tag k="wheelchair" v="yes"/>
	</node>
	<node id="3505013993" lat="41.9950911" lon="21.4317257" version="2" timestamp="2019-05-06T12:38:13Z" changeset="69934530" uid="158784" user="bjankuloski">
		<tag k="addr:city" v="Скопје"/>
		<tag k="addr:city:en" v="Skopje"/>
		<tag k="addr:country" v="MK"/>
		<tag k="addr:housenumber" v="2"/>
		<tag k="addr:postcode" v="1000"/>
		<tag k="addr:street" v="11 Октомври"/>
		<tag k="addr:street:en" v="11 Oktomvri"/>
		<tag k="amenity" v="restaurant"/>
		<tag k="cuisine" v="italian"/>
		<tag k="int_name" v="La Terrazza"/>
		<tag k="name" v="Ла Тераца"/>
		<tag k="opening_hours" v="08:00-24:00, Fr-Sa 08:00-01:00"/>
		<tag k="outdoor_seating" v="yes"/>
		<tag k="phone" v="+389 2 3113380"/>
		<tag k="smoking" v="separated"/>
		<tag k="wheelchair" v="yes"/>
	</node>
	<node id="3536179577" lat="41.9953743" lon="21.4099065" version="3" timestamp="2021-02-22T11:35:42Z" changeset="99742247" uid="7140745" user="MatejMecka">
		<tag k="addr:postcode" v="1000"/>
		<tag k="addr:street" v="Митрополит Теодосиј Гологанов"/>
		<tag k="amenity" v="restaurant"/>
		<tag k="internet_access" v="wlan"/>
		<tag k="name" v="Носталгија"/>
		<tag k="name:en" v="Nostalgija"/>
		<tag k="phone" v="+38923060708"/>
	</node>
	<node id="3648714485" lat="42.0062651" lon="21.4063144" version="3" timestamp="2020-10-26T12:11:47Z" changeset="93060647" uid="273212" user="Jakub Trojan">
		<tag k="addr:city" v="Cкoпje"/>
		<tag k="addr:housenumber" v="18"/>
		<tag k="addr:postcode" v="1000"/>
		<tag k="addr:street" v="Булевар 8-ми Септември"/>
		<tag k="amenity" v="restaurant"/>
		<tag k="name" v="Барбакан"/>
		<tag k="name:en" v="Barbakan"/>
		<tag k="opening_hours" v="08:00-01:00"/>
		<tag k="outdoor_seating" v="yes"/>
	</node>
	<node id="3832475135" lat="41.9922973" lon="21.4427246" version="1" timestamp="2015-11-12T12:19:15Z" changeset="35259880" uid="131662" user="borces">
		<tag k="amenity" v="restaurant"/>
		<tag k="name" v="Лезет"/>
	</node>
	<node id="3832475147" lat="41.9922032" lon="21.4422139" version="1" timestamp="2015-11-12T12:19:15Z" changeset="35259880" uid="131662" user="borces">
		<tag k="amenity" v="restaurant"/>
		<tag k="name" v="Кај Злате"/>
	</node>
	<node id="4004645106" lat="41.9957324" lon="21.4301301" version="3" timestamp="2019-05-06T12:38:13Z" changeset="69934530" uid="158784" user="bjankuloski">
		<tag k="addr:city" v="Cкoпje"/>
		<tag k="addr:country" v="MK"/>
		<tag k="addr:housenumber" v="3"/>
		<tag k="addr:postcode" v="1000"/>
		<tag k="addr:street" v="Максим Горки"/>
		<tag k="addr:street:en" v="Maksim Gorki"/>
		<tag k="amenity" v="restaurant"/>
		<tag k="cuisine" v="chinese"/>
		<tag k="email" v="reservation@pekinggarden.mk"/>
		<tag k="int_name" v="Peking Garden"/>
		<tag k="name" v="Пекинг Гарден"/>
		<tag k="opening_hours" v="Mo-Sa 11:00-24:00; Su 12:00-23:00"/>
		<tag k="phone" v="+389 2 3221173"/>
		<tag k="website" v="www.pekinggarden.mk"/>
	</node>
	<node id="4101107990" lat="41.9871974" lon="21.4365756" version="2" timestamp="2021-02-22T11:45:28Z" changeset="99743084" uid="7140745" user="MatejMecka">
		<tag k="addr:street" v="Јужен Булевар"/>
		<tag k="amenity" v="restaurant"/>
		<tag k="internet_access" v="wlan"/>
		<tag k="name" v="Makedonska sofra"/>
		<tag k="opening_hours" v="Mo-Sa 08:00-01:00"/>
		<tag k="phone" v="+38978929010"/>
	</node>
	<node id="4126731965" lat="41.9973163" lon="21.434577" version="1" timestamp="2016-04-16T17:47:44Z" changeset="38628030" uid="1468248" user="TheBlackMan">
		<tag k="amenity" v="restaurant"/>
		<tag k="cuisine" v="international"/>
		<tag k="name" v="Sky ресторанот"/>
		<tag k="name:en" v="Sky Restaurant"/>
		<tag k="operator" v="Hotel Stone Bridge"/>
	</node>
	<node id="4149490289" lat="41.9933026" lon="21.4300742" version="3" timestamp="2021-07-21T11:20:18Z" changeset="108362001" uid="7140745" user="MatejMecka">
		<tag k="addr:city" v="Скопје"/>
		<tag k="addr:housenumber" v="11"/>
		<tag k="addr:postcode" v="1000"/>
		<tag k="addr:street" v="Македонија"/>
		<tag k="amenity" v="restaurant"/>
		<tag k="cuisine" v="mexican"/>
		<tag k="email" v="info@amigos.com.mk"/>
		<tag k="name" v="Amigos Мексиканска Кантина"/>
		<tag k="name:en" v="Amigos Mexican Cantina"/>
		<tag k="opening_hours" v="Mo-Th 08:00-24:00, Fr,Sa 08:00-01:00, Su 10:00-24:00"/>
		<tag k="outdoor_seating" v="yes"/>
		<tag k="phone" v="+389 71 230314"/>
		<tag k="smoking" v="outside"/>
		<tag k="takeaway" v="yes"/>
		<tag k="website" v="http://www.amigos.com.mk/"/>
		<tag k="wheelchair" v="yes"/>
	</node>
	<node id="4195733217" lat="41.9955972" lon="21.4338587" version="7" timestamp="2022-11-11T10:23:35Z" changeset="128769670" uid="154757" user="Tr4sK">
		<tag k="addr:city" v="Cкoпje"/>
		<tag k="addr:city:en" v="Skopje"/>
		<tag k="addr:country" v="MK"/>
		<tag k="addr:housename" v="Gradski Trgovski Centar Skopje"/>
		<tag k="addr:postcode" v="1000"/>
		<tag k="addr:street" v="Кеј 13 Ноември"/>
		<tag k="addr:street:en" v="Kay 13th November"/>
		<tag k="amenity" v="restaurant"/>
		<tag k="cuisine" v="international"/>
		<tag k="name" v="Соул кичен"/>
		<tag k="name:en" v="Soul-Kitchen"/>
		<tag k="opening_hours" v="Mo-Th 08:00-24:00, Fr,Sa 08:00-01:00, Su 10:00-24:00"/>
		<tag k="operator" v="Soul-Kitchen"/>
		<tag k="outdoor_seating" v="yes"/>
		<tag k="smoking" v="outside"/>
	</node>
	<node id="4275843195" lat="41.9969599" lon="21.4160063" version="1" timestamp="2016-07-01T15:17:24Z" changeset="40419745" uid="131662" user="borces">
		<tag k="amenity" v="restaurant"/>
		<tag k="name" v="Лавче"/>
	</node>
	<node id="4302211290" lat="42.0030463" lon="21.4002154" version="2" timestamp="2017-11-28T13:43:34Z" changeset="54149559" uid="6970734" user="Dekacc">
		<tag k="amenity" v="restaurant"/>
		<tag k="cuisine" v="fish"/>
		<tag k="name" v="Бабе"/>
	</node>
	<node id="4327921318" lat="42.0034137" lon="21.3986642" version="3" timestamp="2021-02-22T11:18:45Z" changeset="99740877" uid="7140745" user="MatejMecka">
		<tag k="amenity" v="restaurant"/>
		<tag k="cuisine" v="thai"/>
		<tag k="name" v="Thong Thai"/>
		<tag k="opening_hours" v="Sa-Su 10:00-01:00"/>
		<tag k="operator" v="Thong Thai"/>
		<tag k="payment:debit_cards" v="no"/>
		<tag k="phone" v="+38971661234"/>
		<tag k="smoking" v="outside"/>
		<tag k="takeaway" v="yes"/>
	</node>
	<node id="4346542839" lat="41.9927317" lon="21.4301208" version="2" timestamp="2018-01-17T00:23:15Z" changeset="55508620" uid="6970734" user="Dekacc">
		<tag k="amenity" v="restaurant"/>
		<tag k="internet_access" v="wlan"/>
		<tag k="name" v="Lounge Bar &#38; Restaurant &#34;Square 21&#34;"/>
	</node>
	<node id="4436518191" lat="41.9996618" lon="21.4362461" version="2" timestamp="2016-10-10T14:32:01Z" changeset="42778759" uid="4669141" user="Jing Yong">
		<tag k="amenity" v="restaurant"/>
		<tag k="name" v="Kaj Serdarot"/>
		<tag k="name:mk" v="Kaj Cerdarot"/>
	</node>
	<node id="4436534289" lat="41.9996701" lon="21.436081" version="1" timestamp="2016-10-07T17:16:52Z" changeset="42716849" uid="4669141" user="Jing Yong">
		<tag k="amenity" v="restaurant"/>
		<tag k="name" v="Destan"/>
		<tag k="name:mk" v="Destan"/>
	</node>
	<node id="4436534489" lat="41.9994953" lon="21.4355402" version="2" timestamp="2019-05-16T12:44:26Z" changeset="70317238" uid="158784" user="bjankuloski">
		<tag k="amenity" v="restaurant"/>
		<tag k="name" v="Австриска палта"/>
		<tag k="name:en" v="Austrian Palace"/>
		<tag k="name:mk" v="Austrian Palace"/>
	</node>
	<node id="4459578969" lat="41.9949989" lon="21.4355402" version="2" timestamp="2019-05-16T13:11:25Z" changeset="70318404" uid="158784" user="bjankuloski">
		<tag k="addr:city" v="Cкoпje"/>
		<tag k="addr:city:en" v="Skopje"/>
		<tag k="addr:country" v="MK"/>
		<tag k="addr:housename" v="Gradski Trgovski Centar Skopje"/>
		<tag k="addr:postcode" v="1000"/>
		<tag k="addr:street" v="Кеј 13 Ноември"/>
		<tag k="addr:street:en" v="Kay 13th November"/>
		<tag k="amenity" v="restaurant"/>
		<tag k="cuisine" v="international"/>
		<tag k="int_name" v="Amica"/>
		<tag k="level" v="1"/>
		<tag k="name" v="Амика"/>
	</node>
	<node id="4471884330" lat="42.0059792" lon="21.427293" version="1" timestamp="2016-10-30T21:04:11Z" changeset="43292254" uid="344903" user="Toyota_79">
		<tag k="amenity" v="restaurant"/>
		<tag k="cuisine" v="international;italian;fish"/>
		<tag k="internet_access" v="wlan"/>
		<tag k="internet_access:fee" v="no"/>
		<tag k="name" v="Four"/>
		<tag k="operator" v="Hotel Park Spa"/>
		<tag k="outdoor_seating" v="yes"/>
		<tag k="smoking" v="outside"/>
	</node>
	<node id="4481662566" lat="41.995703" lon="21.4335119" version="4" timestamp="2019-05-16T13:11:24Z" changeset="70318404" uid="158784" user="bjankuloski">
		<tag k="amenity" v="restaurant"/>
		<tag k="cuisine" v="italian"/>
		<tag k="int_name" v="Dion"/>
		<tag k="name" v="Дион"/>
	</node>
	<node id="4982232721" lat="41.9988648" lon="21.4238693" version="3" timestamp="2019-11-17T15:14:27Z" changeset="77191492" uid="436419" user="wvdp">
		<tag k="amenity" v="restaurant"/>
		<tag k="diet:vegan" v="yes"/>
		<tag k="name:en" v="BistRaw"/>
		<tag k="opening_hours" v="Mo-Fr 12:00-20:00"/>
	</node>
	<node id="5019758021" lat="42.0039853" lon="21.4280925" version="2" timestamp="2019-03-24T19:31:07Z" changeset="68482023" uid="6970734" user="Dekacc">
		<tag k="amenity" v="restaurant"/>
		<tag k="name" v="Парк"/>
		<tag k="name:en" v="Park"/>
	</node>
	<node id="5033108253" lat="42.0005946" lon="21.4191901" version="2" timestamp="2018-11-25T11:47:58Z" changeset="64864936" uid="6970734" user="Dekacc">
		<tag k="addr:city" v="Cкoпje"/>
		<tag k="addr:housenumber" v="4"/>
		<tag k="addr:postcode" v="1000"/>
		<tag k="addr:street" v="Радњанска"/>
		<tag k="amenity" v="restaurant"/>
		<tag k="capacity" v="100"/>
		<tag k="cuisine" v="burger;coffee_shop;sandwich;ice_cream"/>
		<tag k="name" v="Кантина"/>
		<tag k="opening_hours" v="Monday- Satudray 09:00-24:00"/>
		<tag k="outdoor_seating" v="yes"/>
		<tag k="smoking" v="outside"/>
		<tag k="takeaway" v="yes"/>
	</node>
	<node id="5131832941" lat="41.9948346" lon="21.4277405" version="3" timestamp="2022-11-11T12:11:51Z" changeset="128774147" uid="154757" user="Tr4sK">
		<tag k="addr:city" v="Cкoпje"/>
		<tag k="addr:housenumber" v="7"/>
		<tag k="addr:postcode" v="1000"/>
		<tag k="addr:street" v="Даме Груев"/>
		<tag k="amenity" v="restaurant"/>
		<tag k="cuisine" v="grill"/>
		<tag k="email" v="info@7.mk"/>
		<tag k="name" v="7 Скара Ресторан"/>
		<tag k="name:en" v="7 Grill Restaurant"/>
		<tag k="opening_hours" v="Mo-Th 08:00-24:00; Sa 08:00-01:00"/>
		<tag k="outdoor_seating" v="yes"/>
		<tag k="phone" v="+38923224000"/>
		<tag k="takeaway" v="yes"/>
		<tag k="website" v="http://7.mk/skara-restoran/"/>
	</node>
	<node id="5160613722" lat="41.9899769" lon="21.4492023" version="2" timestamp="2020-11-30T21:31:29Z" changeset="95069473" uid="7140745" user="MatejMecka">
		<tag k="addr:city" v="Cкoпje"/>
		<tag k="addr:housenumber" v="15"/>
		<tag k="addr:postcode" v="1000"/>
		<tag k="addr:street" v="Булевар Кузман Јосифовски Питу"/>
		<tag k="amenity" v="restaurant"/>
		<tag k="internet_access" v="wlan"/>
		<tag k="name" v="Мезе Бар"/>
		<tag k="name:en" v="Meze Bar"/>
		<tag k="opening_hours" v="Fr-Su 08:00-01:00; Su 08:00-17:00; Mo-Th 08:00-00:00"/>
		<tag k="opening_hours:covid19" v="same"/>
		<tag k="phone" v="+38926121214"/>
		<tag k="website" v="https://www.facebook.com/mezebarskopjanka/"/>
	</node>
	<node id="5224224121" lat="41.9916485" lon="21.4223088" version="2" timestamp="2021-02-22T11:52:27Z" changeset="99743651" uid="7140745" user="MatejMecka">
		<tag k="addr:postcode" v="1000"/>
		<tag k="amenity" v="restaurant"/>
		<tag k="email" v="ristovskidac@yahoo.com"/>
		<tag k="internet_access" v="wlan"/>
		<tag k="name" v="Gostilnica Gurman"/>
		<tag k="name:en" v="guest house Gurman"/>
		<tag k="opening_hours" v="Mo-Su 07:00-22:00"/>
		<tag k="phone" v="+38923176200"/>
	</node>
	<node id="5246219203" lat="41.9868025" lon="21.4193986" version="1" timestamp="2017-11-24T20:16:11Z" changeset="54059055" uid="155698" user="ibz">
		<tag k="amenity" v="restaurant"/>
		<tag k="cuisine" v="macedonian"/>
		<tag k="name" v="Баба Цана"/>
		<tag k="name:en" v="Baba Cana"/>
	</node>
	<node id="5289706561" lat="41.9913338" lon="21.4276864" version="1" timestamp="2017-12-17T13:10:45Z" changeset="54702866" uid="6970734" user="Dekacc">
		<tag k="amenity" v="restaurant"/>
		<tag k="name" v="Star Ocean"/>
	</node>
	<node id="5292130848" lat="42.0005187" lon="21.4149006" version="3" timestamp="2018-04-13T14:33:52Z" changeset="58066445" uid="6970734" user="Dekacc">
		<tag k="amenity" v="restaurant"/>
		<tag k="name" v="Fitness house"/>
	</node>
	<node id="5548809221" lat="41.9995926" lon="21.4366123" version="3" timestamp="2018-11-01T21:14:32Z" changeset="64093982" uid="4076934" user="Interactiondesigner">
		<tag k="amenity" v="restaurant"/>
		<tag k="cuisine" v="local;barbecue"/>
		<tag k="name" v="кај сердарот"/>
		<tag k="name:en" v="Kaj Serdarot"/>
		<tag k="outdoor_seating" v="yes"/>
	</node>
	<node id="5572053321" lat="42.0013292" lon="21.4205747" version="4" timestamp="2021-02-22T12:04:07Z" changeset="99744659" uid="7140745" user="MatejMecka">
		<tag k="addr:postcode" v="1000"/>
		<tag k="addr:street" v="Живко Чинго"/>
		<tag k="amenity" v="restaurant"/>
		<tag k="cuisine" v="chicken;diner;beef_bowl;american;ice_cream;local;tea;pizza;burger;cake;pasta;french;italian_pizza;seafood;crepe;pancake;sandwich;coffee_shop;balkan;mediterranean;croatian;fish;kebab;breakfast;grill"/>
		<tag k="diet:vegan" v="yes"/>
		<tag k="internet_access" v="wlan"/>
		<tag k="name" v="Дебар Маало"/>
		<tag k="name:en" v="Debar Maalo"/>
		<tag k="opening_hours" v="Su-Th 08:00-00:30; Fr-Sa 08:00-01:00"/>
		<tag k="phone" v="+38976219654"/>
	</node>
	<node id="5624670966" lat="42.0023813" lon="21.4235595" version="2" timestamp="2020-04-16T06:50:58Z" changeset="83629134" uid="5359" user="user_5359">
		<tag k="addr:housenumber" v="80"/>
		<tag k="addr:postcode" v="1000"/>
		<tag k="addr:street" v="Булевар Илинден"/>
		<tag k="amenity" v="restaurant"/>
		<tag k="cuisine" v="balkan"/>
		<tag k="email" v="mezebarmcm@gmail.com"/>
		<tag k="internet_access" v="wlan"/>
		<tag k="name" v="МЦМ Мезе Бар"/>
		<tag k="name:en" v="MCM Meze Bar"/>
		<tag k="opening_hours" v="24/7"/>
		<tag k="phone" v="+38970250420"/>
	</node>
	<node id="5624682355" lat="42.0028235" lon="21.4239655" version="1" timestamp="2018-05-17T14:23:51Z" changeset="59052859" uid="131662" user="borces">
		<tag k="amenity" v="restaurant"/>
		<tag k="name" v="Костарика"/>
		<tag k="name:en" v="Kostarika"/>
	</node>
	<node id="5624682356" lat="42.003366" lon="21.4242333" version="2" timestamp="2019-03-24T19:18:32Z" changeset="68481720" uid="6970734" user="Dekacc">
		<tag k="amenity" v="restaurant"/>
		<tag k="name" v="Калабалак"/>
		<tag k="name:en" v="Kalabalak"/>
		<tag k="old_name" v="Скала"/>
	</node>
	<node id="5624682357" lat="42.0028813" lon="21.4240111" version="1" timestamp="2018-05-17T14:23:51Z" changeset="59052859" uid="131662" user="borces">
		<tag k="amenity" v="restaurant"/>
		<tag k="name" v="Старо Скупи"/>
		<tag k="name:en" v="Staro Skupi"/>
	</node>
	<node id="5624682358" lat="42.0030128" lon="21.4240218" version="1" timestamp="2018-05-17T14:23:51Z" changeset="59052859" uid="131662" user="borces">
		<tag k="amenity" v="restaurant"/>
		<tag k="cuisine" v="pizza"/>
		<tag k="name" v="Занзибар"/>
		<tag k="name:en" v="Zanzibar"/>
	</node>
	<node id="5626432520" lat="42.0013712" lon="21.4210921" version="1" timestamp="2018-05-18T10:59:42Z" changeset="59076210" uid="131662" user="borces">
		<tag k="amenity" v="restaurant"/>
		<tag k="name" v="Идадија"/>
		<tag k="name:en" v="Idadija"/>
	</node>
	<node id="5626433431" lat="42.001453" lon="21.4214837" version="1" timestamp="2018-05-18T10:59:42Z" changeset="59076210" uid="131662" user="borces">
		<tag k="amenity" v="restaurant"/>
		<tag k="name" v="Наџак"/>
		<tag k="name:en" v="Nadzak"/>
	</node>
	<node id="5626433457" lat="42.0010941" lon="21.4206632" version="2" timestamp="2019-09-15T08:28:43Z" changeset="74490716" uid="4242580" user="Ppx">
		<tag k="amenity" v="restaurant"/>
		<tag k="name" v="Zing"/>
		<tag k="name:en" v="Fruti Di Mare"/>
	</node>
	<node id="5626433480" lat="42.0007591" lon="21.420049" version="2" timestamp="2019-05-06T08:34:05Z" changeset="69926830" uid="9864829" user="Richie0210">
		<tag k="amenity" v="restaurant"/>
		<tag k="name" v="Дебар Маало"/>
		<tag k="name:en" v="Gostilnica Ilinden"/>
	</node>
	<node id="5626433502" lat="42.0014888" lon="21.4208615" version="1" timestamp="2018-05-18T10:59:43Z" changeset="59076210" uid="131662" user="borces">
		<tag k="amenity" v="restaurant"/>
		<tag k="name" v="Кај Перо"/>
		<tag k="name:en" v="Kaj Pero"/>
	</node>
	<node id="5692608680" lat="41.9990664" lon="21.4236496" version="1" timestamp="2018-06-15T10:35:52Z" changeset="59870841" uid="344903" user="Toyota_79">
		<tag k="amenity" v="restaurant"/>
		<tag k="cuisine" v="kebab"/>
		<tag k="name" v="Gostilnica Estel"/>
		<tag k="operator" v="Estel"/>
		<tag k="outdoor_seating" v="yes"/>
	</node>
	<node id="5789449053" lat="41.9995917" lon="21.4361151" version="1" timestamp="2018-07-27T09:32:49Z" changeset="61114621" uid="4242580" user="Ppx">
		<tag k="amenity" v="restaurant"/>
		<tag k="cuisine" v="local"/>
		<tag k="internet_access" v="wlan"/>
		<tag k="name" v="СНОШТИ МИНАВ"/>
		<tag k="name:en" v="SNOSTI MINAV"/>
	</node>
	<node id="5807750050" lat="41.995288" lon="21.4367281" version="1" timestamp="2018-08-03T18:50:28Z" changeset="61338998" uid="344903" user="Toyota_79">
		<tag k="amenity" v="restaurant"/>
	</node>
	<node id="5813417254" lat="42.0009079" lon="21.4200655" version="3" timestamp="2021-02-22T11:59:29Z" changeset="99744248" uid="7140745" user="MatejMecka">
		<tag k="addr:postcode" v="1000"/>
		<tag k="addr:street" v="Живко Чинго"/>
		<tag k="amenity" v="restaurant"/>
		<tag k="cuisine" v="savory_pancakes;german;chicken;diner;american;local;barbecue;tea;fine_dining;cake;pasta;international;french;greek;seafood;fish_and_chips;pancake;sandwich;coffee_shop;balkan;mediterranean;croatian;ramen;turkish;fish;kebab;grill"/>
		<tag k="diet:vegan" v="yes"/>
		<tag k="internet_access" v="wlan"/>
		<tag k="name" v="Кафана &#34;Дебар Маало&#34;"/>
		<tag k="name:en" v="Kafana &#34;Debar Maalo&#34;"/>
		<tag k="opening_hours" v="Mo-Th 08:00-00:00; Fr-Su 08:00-01:00"/>
		<tag k="phone" v="+38971279660"/>
	</node>
	<node id="5840484087" lat="42.0031615" lon="21.4001853" version="2" timestamp="2021-01-31T17:37:32Z" changeset="98459272" uid="1468248" user="TheBlackMan">
		<tag k="amenity" v="restaurant"/>
		<tag k="cuisine" v="macedonian"/>
		<tag k="name" v="Буре"/>
	</node>
	<node id="6032865286" lat="42.0002786" lon="21.4371953" version="1" timestamp="2018-11-02T21:32:20Z" changeset="64128244" uid="4076934" user="Interactiondesigner">
		<tag k="amenity" v="restaurant"/>
		<tag k="cuisine" v="barbecue;local"/>
		<tag k="name" v="Pçela"/>
	</node>
	<node id="6054048486" lat="42.0021215" lon="21.4378319" version="2" timestamp="2019-09-22T11:33:28Z" changeset="74769899" uid="4242580" user="Ppx">
		<tag k="amenity" v="restaurant"/>
		<tag k="name:en" v="Bratstvo"/>
	</node>
	<node id="6054048696" lat="42.0037034" lon="21.4154682" version="1" timestamp="2018-11-12T06:19:24Z" changeset="64393596" uid="9047835" user="YunDi88">
		<tag k="amenity" v="restaurant"/>
	</node>
	<node id="6054048700" lat="41.9972228" lon="21.4228991" version="1" timestamp="2018-11-12T06:19:49Z" changeset="64393596" uid="9047835" user="YunDi88">
		<tag k="amenity" v="restaurant"/>
	</node>
	<node id="6054048705" lat="41.9995711" lon="21.4356281" version="4" timestamp="2022-11-01T20:13:25Z" changeset="128362208" uid="154757" user="Tr4sK">
		<tag k="amenity" v="restaurant"/>
		<tag k="cuisine" v="german"/>
		<tag k="name" v="Austrian Palace"/>
		<tag k="opening_hours" v="Mo-Su 09:00-24:00"/>
	</node>
	<node id="6054050086" lat="41.9946111" lon="21.4207756" version="1" timestamp="2018-11-12T06:18:40Z" changeset="64393596" uid="9047835" user="YunDi88">
		<tag k="amenity" v="restaurant"/>
	</node>
	<node id="6054050099" lat="41.9947932" lon="21.4135121" version="2" timestamp="2019-09-26T12:21:44Z" changeset="74957474" uid="3935153" user="Ivica Petreski">
		<tag k="amenity" v="restaurant"/>
		<tag k="name" v="Воденица"/>
	</node>
	<node id="6054050786" lat="41.9986877" lon="21.4142348" version="1" timestamp="2018-11-12T06:21:38Z" changeset="64393596" uid="9047835" user="YunDi88">
		<tag k="amenity" v="restaurant"/>
	</node>
	<node id="6102488864" lat="41.9959518" lon="21.4199442" version="1" timestamp="2018-11-29T08:12:26Z" changeset="65000595" uid="2017065" user="Adam Harangozó">
		<tag k="alt_name" v="Gostilnica Frosina"/>
		<tag k="amenity" v="restaurant"/>
		<tag k="cuisine" v="local"/>
		<tag k="name" v="Restoran Frosina"/>
	</node>
	<node id="6386335236" lat="41.9996644" lon="21.4362086" version="1" timestamp="2019-04-05T18:37:59Z" changeset="68933205" uid="9455916" user="ahapen">
		<tag k="amenity" v="restaurant"/>
		<tag k="name" v="Kaj Гоце"/>
	</node>
	<node id="6514996385" lat="42.0025666" lon="21.4383067" version="2" timestamp="2019-09-22T11:33:28Z" changeset="74769899" uid="4242580" user="Ppx">
		<tag k="amenity" v="restaurant"/>
		<tag k="internet_access" v="wlan"/>
		<tag k="name:en" v="Kosmos"/>
		<tag k="opening_hours" v="Mo-Su 07:00-22:00"/>
	</node>
	<node id="6781335887" lat="41.999319" lon="21.4360459" version="1" timestamp="2019-09-08T18:39:44Z" changeset="74234134" uid="9108335" user="Yvonlo8">
		<tag k="amenity" v="restaurant"/>
		<tag k="name" v="Kebapčilinica Rio"/>
		<tag k="name:en" v="Grill House Rio"/>
	</node>
	<node id="6781337085" lat="42.0018869" lon="21.4383639" version="1" timestamp="2019-09-08T18:39:44Z" changeset="74234134" uid="9108335" user="Yvonlo8">
		<tag k="amenity" v="restaurant"/>
		<tag k="name:en" v="Gjeltoria Palas"/>
	</node>
	<node id="6788977446" lat="41.9995518" lon="21.4131738" version="1" timestamp="2019-09-11T17:45:23Z" changeset="74366594" uid="154757" user="Tr4sK">
		<tag k="addr:housenumber" v="20"/>
		<tag k="amenity" v="restaurant"/>
		<tag k="name" v="Vega"/>
	</node>
	<node id="6796436088" lat="42.0015097" lon="21.4381319" version="2" timestamp="2021-01-07T21:59:36Z" changeset="97132091" uid="12449645" user="SlaSla57">
		<tag k="amenity" v="restaurant"/>
		<tag k="name" v="Сараево"/>
		<tag k="name:en" v="Saraj"/>
		<tag k="opening_hours" v="Mo-Su 07:30-19:00"/>
	</node>
	<node id="6814231688" lat="42.0006226" lon="21.4364213" version="1" timestamp="2019-09-21T15:31:52Z" changeset="74752372" uid="9047835" user="YunDi88">
		<tag k="amenity" v="restaurant"/>
		<tag k="name" v="Tako mako"/>
	</node>
	<node id="6814231700" lat="42.0003594" lon="21.4372514" version="1" timestamp="2019-09-21T15:32:33Z" changeset="74752372" uid="9047835" user="YunDi88">
		<tag k="amenity" v="restaurant"/>
		<tag k="name" v="Ohrid"/>
	</node>
	<node id="6814231702" lat="41.9969456" lon="21.4285563" version="1" timestamp="2019-09-21T15:32:37Z" changeset="74752372" uid="9047835" user="YunDi88">
		<tag k="amenity" v="restaurant"/>
		<tag k="name" v="Markt kitchen"/>
	</node>
	<node id="6814231793" lat="42.0002543" lon="21.4374652" version="1" timestamp="2019-09-21T15:32:33Z" changeset="74752372" uid="9047835" user="YunDi88">
		<tag k="amenity" v="restaurant"/>
		<tag k="name" v="Sac"/>
	</node>
	<node id="6814236587" lat="42.0019483" lon="21.4224937" version="1" timestamp="2019-09-21T15:31:47Z" changeset="74752372" uid="9047835" user="YunDi88">
		<tag k="amenity" v="restaurant"/>
		<tag k="name" v="Skopsko"/>
	</node>
	<node id="6814236621" lat="42.002112" lon="21.4385882" version="1" timestamp="2019-09-21T15:32:21Z" changeset="74752372" uid="9047835" user="YunDi88">
		<tag k="amenity" v="restaurant"/>
		<tag k="name" v="Palas"/>
	</node>
	<node id="6814245589" lat="42.0017089" lon="21.4219242" version="2" timestamp="2019-12-02T19:01:50Z" changeset="77838965" uid="10517616" user="DemonHyper">
		<tag k="amenity" v="restaurant"/>
		<tag k="name" v="Schpajs"/>
		<tag k="name:mk" v="Шпајз"/>
	</node>
	<node id="6814246691" lat="42.0005272" lon="21.436443" version="1" timestamp="2019-09-21T15:31:51Z" changeset="74752372" uid="9047835" user="YunDi88">
		<tag k="amenity" v="restaurant"/>
		<tag k="name" v="Don Giovanni"/>
	</node>
	<node id="6814246724" lat="41.9999786" lon="21.4373399" version="1" timestamp="2019-09-21T15:32:32Z" changeset="74752372" uid="9047835" user="YunDi88">
		<tag k="amenity" v="restaurant"/>
		<tag k="name" v="Concept"/>
	</node>
	<node id="6814246726" lat="41.9982749" lon="21.4283051" version="3" timestamp="2022-11-02T14:40:19Z" changeset="128395570" uid="154757" user="Tr4sK">
		<tag k="amenity" v="restaurant"/>
		<tag k="name" v="Море Маниа"/>
	</node>
	<node id="6815434686" lat="42.0016292" lon="21.4382061" version="2" timestamp="2021-10-25T16:00:48Z" changeset="112954668" uid="9047835" user="YunDi88">
		<tag k="amenity" v="restaurant"/>
		<tag k="name" v="Plaset"/>
		<tag k="name:en" v="Restoran Saraj"/>
		<tag k="opening_hours" v="Mo-Su 07:00-02:00"/>
	</node>
	<node id="6815434689" lat="41.9967339" lon="21.4229663" version="1" timestamp="2019-09-22T11:33:32Z" changeset="74769899" uid="4242580" user="Ppx">
		<tag k="amenity" v="restaurant"/>
		<tag k="name:en" v="Toto"/>
	</node>
	<node id="6815434691" lat="41.9971719" lon="21.4086507" version="2" timestamp="2020-01-15T15:06:52Z" changeset="79611974" uid="131662" user="borces">
		<tag k="amenity" v="restaurant"/>
		<tag k="name" v="Млечен Бар"/>
	</node>
	<node id="6815434692" lat="42.002027" lon="21.4384905" version="1" timestamp="2019-09-22T11:33:35Z" changeset="74769899" uid="4242580" user="Ppx">
		<tag k="amenity" v="restaurant"/>
		<tag k="name:en" v="Teteks"/>
	</node>
	<node id="6815454785" lat="41.9945241" lon="21.4244578" version="1" timestamp="2019-09-22T11:33:32Z" changeset="74769899" uid="4242580" user="Ppx">
		<tag k="amenity" v="restaurant"/>
		<tag k="name" v="Букет"/>
	</node>
	<node id="6815918386" lat="41.9963262" lon="21.4243264" version="1" timestamp="2019-09-22T17:48:00Z" changeset="74777891" uid="9047835" user="YunDi88">
		<tag k="amenity" v="restaurant"/>
		<tag k="name" v="Mosh"/>
	</node>
	<node id="6815931392" lat="42.0026188" lon="21.4186405" version="1" timestamp="2019-09-22T17:53:01Z" changeset="74777891" uid="9047835" user="YunDi88">
		<tag k="amenity" v="restaurant"/>
		<tag k="name" v="Metzka"/>
	</node>
	<node id="6821158588" lat="41.9942446" lon="21.4243092" version="1" timestamp="2019-09-24T20:15:13Z" changeset="74876257" uid="9047835" user="YunDi88">
		<tag k="amenity" v="restaurant"/>
		<tag k="name" v="Davidoff"/>
	</node>
	<node id="6827032731" lat="42.0027517" lon="21.4415279" version="1" timestamp="2019-09-26T12:14:12Z" changeset="74956993" uid="9047835" user="YunDi88">
		<tag k="amenity" v="restaurant"/>
		<tag k="name" v="Pizzeria Bik"/>
	</node>
	<node id="6827032733" lat="42.0011296" lon="21.4380383" version="1" timestamp="2019-09-26T12:14:15Z" changeset="74956993" uid="9047835" user="YunDi88">
		<tag k="amenity" v="restaurant"/>
		<tag k="name" v="Old Balkan"/>
	</node>
	<node id="6827076186" lat="42.0025774" lon="21.4371206" version="1" timestamp="2019-09-26T12:14:20Z" changeset="74956993" uid="9047835" user="YunDi88">
		<tag k="amenity" v="restaurant"/>
		<tag k="name" v="Kursumli An"/>
	</node>
	<node id="7001354685" lat="42.0030579" lon="21.4009703" version="1" timestamp="2019-11-22T12:11:07Z" changeset="77424591" uid="9497227" user="AnttonC">
		<tag k="amenity" v="restaurant"/>
		<tag k="name" v="Буре лептокарија"/>
		<tag k="name:en" v="Bure Leptokarija"/>
	</node>
	<node id="7027229685" lat="41.993295" lon="21.4352029" version="1" timestamp="2019-12-02T21:19:21Z" changeset="77842814" uid="10517616" user="DemonHyper">
		<tag k="amenity" v="restaurant"/>
		<tag k="name" v="Ресторан Национал"/>
		<tag k="name:en" v="Restaurant National"/>
	</node>
	<node id="7027229686" lat="41.996324" lon="21.4283137" version="2" timestamp="2021-07-24T18:24:53Z" changeset="108542187" uid="361707" user="0xF00F">
		<tag k="amenity" v="restaurant"/>
		<tag k="name" v="Кај Јоле"/>
		<tag k="name:en" v="Kaj Jole"/>
	</node>
	<node id="7093171485" lat="42.0062237" lon="21.4157772" version="2" timestamp="2020-10-26T12:11:47Z" changeset="93060647" uid="273212" user="Jakub Trojan">
		<tag k="addr:street" v="Булевар Илинден"/>
		<tag k="amenity" v="restaurant"/>
		<tag k="cuisine" v="barbecue;burger;american;breakfast;balkan"/>
		<tag k="internet_access" v="wlan"/>
		<tag k="name" v="Рок Кафана Рустикана 2.0"/>
		<tag k="name:en" v="Rock Kafana Rustikana 2.0"/>
		<tag k="opening_hours" v="Mo-Sa 10:00-24:00"/>
	</node>
	<node id="7130929832" lat="42.0046693" lon="21.4147058" version="2" timestamp="2021-02-22T11:41:24Z" changeset="99742766" uid="7140745" user="MatejMecka">
		<tag k="addr:city" v="Cкoпje"/>
		<tag k="addr:postcode" v="1000"/>
		<tag k="addr:street" v="Орце Николов"/>
		<tag k="air_conditioning" v="yes"/>
		<tag k="amenity" v="restaurant"/>
		<tag k="cuisine" v="international"/>
		<tag k="delivery" v="no"/>
		<tag k="name" v="Скадарлија"/>
		<tag k="outdoor_seating" v="yes"/>
		<tag k="phone" v="+38923052717"/>
		<tag k="reservation" v="yes"/>
		<tag k="smoking" v="separated"/>
		<tag k="website" v="https://restoran-skadarlija-skopje.business.site/"/>
	</node>
	<node id="8094057485" lat="41.9974684" lon="21.4097614" version="1" timestamp="2020-11-08T16:03:49Z" changeset="93747945" uid="11849964" user="Velibear">
		<tag k="addr:city" v="Cкoпje"/>
		<tag k="addr:housenumber" v="21"/>
		<tag k="addr:postcode" v="1000"/>
		<tag k="addr:street" v="Атинска"/>
		<tag k="amenity" v="restaurant"/>
		<tag k="name" v="Сидро"/>
	</node>
	<node id="8745631651" lat="41.994279" lon="21.427727" version="2" timestamp="2022-11-11T12:11:51Z" changeset="128774147" uid="154757" user="Tr4sK">
		<tag k="addr:city" v="Cкoпje"/>
		<tag k="addr:housenumber" v="7"/>
		<tag k="addr:street" v="Даме Груев"/>
		<tag k="amenity" v="restaurant"/>
		<tag k="diet:sugar_free" v="yes"/>
		<tag k="diet:vegan" v="yes"/>
		<tag k="diet:vegetarian" v="yes"/>
		<tag k="name" v="Paradise Food"/>
		<tag k="opening_hours" v="Mo-Th 08:00-20:00; Fr 08:00-16:00; Su 08:00-20:00"/>
		<tag k="phone" v="+389 76 424 104"/>
		<tag k="website" v="https://www.facebook.com/paradisefood.mk/"/>
	</node>
	<node id="8905635710" lat="41.9909456" lon="21.4408895" version="1" timestamp="2021-07-08T22:04:44Z" changeset="107663021" uid="510085" user="alkino">
		<tag k="amenity" v="restaurant"/>
	</node>
	<node id="9200216340" lat="42.0006689" lon="21.4142957" version="1" timestamp="2021-10-25T16:01:33Z" changeset="112954668" uid="9047835" user="YunDi88">
		<tag k="amenity" v="restaurant"/>
		<tag k="name" v="Mexican street food"/>
	</node>
	<node id="9200216346" lat="41.9970867" lon="21.4171233" version="3" timestamp="2022-11-12T17:10:17Z" changeset="128821154" uid="154757" user="Tr4sK">
		<tag k="amenity" v="restaurant"/>
		<tag k="cuisine" v="burger;regional;grill;coffee_shop;balkan;kebab;pizza"/>
		<tag k="name" v="Боко"/>
		<tag k="outdoor_seating" v="yes"/>
		<tag k="smoking" v="yes"/>
		<tag k="takeaway" v="yes"/>
		<tag k="toilets" v="yes"/>
	</node>
	<node id="9265163562" lat="42.0053837" lon="21.423662" version="1" timestamp="2021-11-18T22:40:00Z" changeset="113966224" uid="7140745" user="MatejMecka">
		<tag k="amenity" v="restaurant"/>
		<tag k="name" v="Кај Вршац"/>
		<tag k="opening_hours" v="Mo-Su 09:00-24:00"/>
		<tag k="phone" v="+38923117382"/>
	</node>
	<node id="9969092317" lat="41.9952558" lon="21.398719" version="2" timestamp="2022-11-11T21:45:06Z" changeset="128794402" uid="154757" user="Tr4sK">
		<tag k="amenity" v="restaurant"/>
		<tag k="name" v="Ckoncko"/>
	</node>
	<node id="10147053074" lat="41.9998586" lon="21.4232203" version="2" timestamp="2022-11-01T11:28:26Z" changeset="128340541" uid="154757" user="Tr4sK">
		<tag k="amenity" v="restaurant"/>
		<tag k="name" v="Baeggel"/>
		<tag k="opening_hours" v="Mo-Sa 08:00-15:00"/>
	</node>
	<node id="10151360411" lat="42.0005347" lon="21.4250341" version="4" timestamp="2022-11-03T09:25:50Z" changeset="128428091" uid="154757" user="Tr4sK">
		<tag k="addr:city" v="Cкoпje"/>
		<tag k="addr:housenumber" v="90"/>
		<tag k="addr:postcode" v="1000"/>
		<tag k="addr:street" v="Орце Николов"/>
		<tag k="amenity" v="restaurant"/>
		<tag k="cuisine" v="french;sandwich"/>
		<tag k="entrance" v="yes"/>
		<tag k="name" v="Mama"/>
		<tag k="opening_hours" v="Mo-Fr 10:00-18:00"/>
		<tag k="outdoor_seating" v="yes"/>
		<tag k="smoking" v="outside"/>
		<tag k="takeaway" v="yes"/>
		<tag k="toilets" v="yes"/>
		<tag k="wheelchair" v="limited"/>
	</node>
	<node id="10162039517" lat="42.0005187" lon="21.4371301" version="1" timestamp="2022-11-06T12:59:16Z" changeset="128554175" uid="6554708" user="Greg Wuxing">
		<tag k="amenity" v="restaurant"/>
		<tag k="cuisine" v="turkish"/>
		<tag k="internet_access" v="wlan"/>
		<tag k="name" v="Medo"/>
		<tag k="opening_hours" v="Su-Sa 08:00-22:00"/>
	</node>
	<way id="32674255" version="7" timestamp="2017-02-26T19:42:05Z" changeset="46424171" uid="4358750" user="mariegorman">
		<nd ref="367656617"/>
		<nd ref="367656619"/>
		<nd ref="367656621"/>
		<nd ref="367656623"/>
		<nd ref="367656625"/>
		<nd ref="4126731966"/>
		<nd ref="367656617"/>
		<tag k="addr:city" v="Cкoпje"/>
		<tag k="addr:city:en" v="Skopje"/>
		<tag k="addr:country" v="MK"/>
		<tag k="addr:postcode" v="1000"/>
		<tag k="addr:street" v="Васил Ѓоргов"/>
		<tag k="amenity" v="restaurant"/>
		<tag k="building" v="office"/>
		<tag k="building:levels" v="1"/>
		<tag k="name" v="Конструкта"/>
		<tag k="office" v="insurance"/>
	</way>
	<way id="32674402" version="4" timestamp="2022-11-11T20:06:08Z" changeset="128791409" uid="154757" user="Tr4sK">
		<nd ref="367659041"/>
		<nd ref="367659045"/>
		<nd ref="367659051"/>
		<nd ref="367659056"/>
		<nd ref="367659041"/>
		<tag k="addr:city" v="Cкoпje"/>
		<tag k="addr:city:en" v="Skopje"/>
		<tag k="addr:country" v="MK"/>
		<tag k="addr:housenumber" v="63"/>
		<tag k="addr:postcode" v="1000"/>
		<tag k="addr:street" v="Митрополит Теодосиј Гологанов"/>
		<tag k="amenity" v="restaurant"/>
		<tag k="building" v="yes"/>
		<tag k="contact:phone" v="+389 2 329 6415"/>
		<tag k="cuisine" v="burger;regional;ice_cream;grill;crepe;coffee_shop;balkan;pancake;chicken;diner;fish;breakfast;tea;sausage;local;fine_dining;kebab;barbecue"/>
		<tag k="designation" v="National restaurant"/>
		<tag k="email" v="contact@makedonskakuka.com"/>
		<tag k="internet_access" v="wlan"/>
		<tag k="name" v="Македонска куќа"/>
		<tag k="name:en" v="Macedonian House Restaurant"/>
		<tag k="opening_hours" v="Mo-Su 08:00-00:00"/>
		<tag k="operator" v="Kiro Ilijeski -Kambero"/>
		<tag k="phone" v="+389 2 329 6415"/>
		<tag k="website" v="http://www.makedonskakuka.com"/>
	</way>
	<way id="121390892" version="5" timestamp="2020-01-16T11:06:41Z" changeset="79647248" uid="131662" user="borces">
		<nd ref="1359271237"/>
		<nd ref="2335358701"/>
		<nd ref="1359271233"/>
		<nd ref="1359271955"/>
		<nd ref="1359271237"/>
		<tag k="addr:city" v="Cкoпje"/>
		<tag k="addr:city:en" v="Skopje"/>
		<tag k="addr:country" v="MK"/>
		<tag k="addr:housenumber" v="28"/>
		<tag k="addr:postcode" v="1000"/>
		<tag k="addr:street" v="Митрополит Теодосиј Гологанов"/>
		<tag k="amenity" v="restaurant"/>
		<tag k="building" v="yes"/>
		<tag k="name" v="Ресторан 2 Златника"/>
		<tag k="office" v="insurance"/>
		<tag k="wheelchair" v="limited"/>
	</way>
	<way id="121511379" version="5" timestamp="2017-02-26T18:29:43Z" changeset="46422620" uid="4358750" user="mariegorman">
		<nd ref="1378087148"/>
		<nd ref="1360096515"/>
		<nd ref="1360096565"/>
		<nd ref="2334423428"/>
		<nd ref="1360096558"/>
		<nd ref="1378087148"/>
		<tag k="addr:city" v="Cкoпje"/>
		<tag k="addr:city:en" v="Skopje"/>
		<tag k="addr:country" v="MK"/>
		<tag k="addr:housenumber" v="21"/>
		<tag k="addr:postcode" v="1000"/>
		<tag k="addr:street" v="Дебарца"/>
		<tag k="amenity" v="restaurant"/>
		<tag k="building" v="yes"/>
		<tag k="name" v="Керпич"/>
	</way>
	<way id="121511400" version="4" timestamp="2017-02-26T19:42:07Z" changeset="46424171" uid="4358750" user="mariegorman">
		<nd ref="1360096525"/>
		<nd ref="1360096464"/>
		<nd ref="1360096563"/>
		<nd ref="1577167286"/>
		<nd ref="1360096525"/>
		<tag k="addr:city" v="Cкoпje"/>
		<tag k="addr:city:en" v="Skopje"/>
		<tag k="addr:country" v="MK"/>
		<tag k="addr:housename" v="Дане"/>
		<tag k="addr:housenumber" v="2"/>
		<tag k="addr:postcode" v="1000"/>
		<tag k="addr:street" v="Киро Крстевски Платник"/>
		<tag k="alt_name" v="Дане"/>
		<tag k="amenity" v="restaurant"/>
		<tag k="building" v="yes"/>
		<tag k="cuisine" v="regional"/>
		<tag k="int_name" v="Dane"/>
		<tag k="name" v="Дане"/>
		<tag k="name:en" v="Dane"/>
	</way>
	<way id="121511815" version="5" timestamp="2021-02-22T11:58:02Z" changeset="99744132" uid="7140745" user="MatejMecka">
		<nd ref="1360100782"/>
		<nd ref="1360100880"/>
		<nd ref="1360100817"/>
		<nd ref="4304422595"/>
		<nd ref="1360100782"/>
		<tag k="addr:city" v="Cкoпje"/>
		<tag k="addr:city:en" v="Skopje"/>
		<tag k="addr:country" v="MK"/>
		<tag k="addr:housenumber" v="32b"/>
		<tag k="addr:postcode" v="1000"/>
		<tag k="addr:street" v="Митрополит Теодосиј Гологанов"/>
		<tag k="amenity" v="restaurant"/>
		<tag k="building" v="yes"/>
		<tag k="cuisine" v="grill;local"/>
		<tag k="internet_access" v="wlan"/>
		<tag k="name" v="Ка"/>
		<tag k="phone" v="+38923214350"/>
	</way>
	<way id="121511817" version="4" timestamp="2017-02-26T19:42:07Z" changeset="46424171" uid="4358750" user="mariegorman">
		<nd ref="1747370831"/>
		<nd ref="1360100879"/>
		<nd ref="1360100850"/>
		<nd ref="1360100799"/>
		<nd ref="1747370831"/>
		<tag k="addr:city" v="Cкoпje"/>
		<tag k="addr:city:en" v="Skopje"/>
		<tag k="addr:country" v="MK"/>
		<tag k="addr:postcode" v="1000"/>
		<tag k="amenity" v="restaurant"/>
		<tag k="building" v="yes"/>
		<tag k="cuisine" v="regional"/>
		<tag k="name" v="Ѓезме"/>
	</way>
	<way id="122862785" version="4" timestamp="2017-02-26T18:40:12Z" changeset="46422854" uid="4358750" user="mariegorman">
		<nd ref="1371588475"/>
		<nd ref="1371588471"/>
		<nd ref="444930912"/>
		<nd ref="1371588464"/>
		<nd ref="1371588475"/>
		<tag k="addr:city" v="Cкoпje"/>
		<tag k="addr:city:en" v="Skopje"/>
		<tag k="addr:country" v="MK"/>
		<tag k="addr:postcode" v="1000"/>
		<tag k="addr:street" v="Аминта Трети"/>
		<tag k="addr:street:en" v="Aminta Treti"/>
		<tag k="amenity" v="restaurant"/>
		<tag k="building" v="yes"/>
		<tag k="cuisine" v="pizza"/>
		<tag k="name" v="Мечос"/>
	</way>
	<way id="176133887" version="3" timestamp="2017-02-26T19:13:45Z" changeset="46423577" uid="4358750" user="mariegorman">
		<nd ref="1866944539"/>
		<nd ref="4471884331"/>
		<nd ref="1866944556"/>
		<nd ref="1866944557"/>
		<nd ref="1866944550"/>
		<nd ref="1866944563"/>
		<nd ref="1866944551"/>
		<nd ref="1866944574"/>
		<nd ref="1866944546"/>
		<nd ref="1866944537"/>
		<nd ref="1866944539"/>
		<tag k="addr:city" v="Cкoпje"/>
		<tag k="addr:city:en" v="Skopje"/>
		<tag k="addr:country" v="MK"/>
		<tag k="addr:postcode" v="1000"/>
		<tag k="amenity" v="restaurant"/>
		<tag k="building" v="yes"/>
	</way>
	<way id="176147491" version="5" timestamp="2019-02-19T19:51:38Z" changeset="67365422" uid="8600365" user="spuddy93">
		<nd ref="1867058167"/>
		<nd ref="1867057890"/>
		<nd ref="1867057578"/>
		<nd ref="1867057892"/>
		<nd ref="1867058167"/>
		<tag k="addr:city" v="Cкoпje"/>
		<tag k="addr:city:en" v="Skopje"/>
		<tag k="addr:country" v="MK"/>
		<tag k="addr:housenumber" v="29"/>
		<tag k="addr:postcode" v="1000"/>
		<tag k="addr:street" v="Аминта Трети"/>
		<tag k="addr:street:en" v="Leninova"/>
		<tag k="amenity" v="restaurant"/>
		<tag k="building" v="apartments"/>
		<tag k="cuisine" v="chinese;thai;japanese;sushi"/>
		<tag k="layer" v="1"/>
		<tag k="name" v="Sushi Ко"/>
		<tag k="name:en" v="Sushico"/>
		<tag k="opening_hours" v="Su-Th 12:00-23:00; Fr-Sa 10:00-00:00"/>
		<tag k="outdoor_seating" v="yes"/>
		<tag k="phone" v="+389 2 3217874"/>
		<tag k="smoking" v="separated"/>
		<tag k="website" v="http://www.sushico.mk"/>
	</way>
	<way id="176154876" version="4" timestamp="2018-12-26T23:07:51Z" changeset="65797627" uid="361707" user="0xF00F">
		<nd ref="1867110660"/>
		<nd ref="1867110657"/>
		<nd ref="5254291268"/>
		<nd ref="1867110668"/>
		<nd ref="1867110691"/>
		<nd ref="1867110696"/>
		<nd ref="1867110660"/>
		<tag k="addr:city" v="Cкoпje"/>
		<tag k="addr:city:en" v="Skopje"/>
		<tag k="addr:country" v="MK"/>
		<tag k="addr:housenumber" v="11"/>
		<tag k="addr:postcode" v="1000"/>
		<tag k="addr:street" v="Никола Тесла"/>
		<tag k="addr:street:en" v="Nikola Tesla"/>
		<tag k="amenity" v="restaurant"/>
		<tag k="building" v="commercial"/>
		<tag k="cuisine" v="regional"/>
		<tag k="email" v="gostilnica_lira@t-home.mk"/>
		<tag k="internet_access" v="wlan"/>
		<tag k="int_name" v="Lira"/>
		<tag k="name" v="Лира"/>
		<tag k="name:en" v="Lyre"/>
		<tag k="opening_hours" v="09:00-24:00, Fr-Sa 09:00-01:00"/>
		<tag k="outdoor_seating" v="yes"/>
		<tag k="payment:american_express" v="yes"/>
		<tag k="payment:coins" v="yes"/>
		<tag k="payment:diners_club" v="yes"/>
		<tag k="payment:maestro" v="yes"/>
		<tag k="payment:mastercard" v="yes"/>
		<tag k="payment:notes" v="yes"/>
		<tag k="payment:visa" v="yes"/>
		<tag k="phone" v="+389 2 3061726"/>
		<tag k="smoking" v="separated"/>
		<tag k="website" v="http://www.lyra.com.mk/"/>
	</way>
	<way id="176159879" version="4" timestamp="2019-06-08T14:01:45Z" changeset="71051705" uid="158784" user="bjankuloski">
		<nd ref="1867151643"/>
		<nd ref="1867151645"/>
		<nd ref="1867151650"/>
		<nd ref="1867151651"/>
		<nd ref="1867151643"/>
		<tag k="addr:city" v="Cкoпje"/>
		<tag k="addr:city:en" v="Skopje"/>
		<tag k="addr:country" v="MK"/>
		<tag k="addr:housenumber" v="14"/>
		<tag k="addr:postcode" v="1000"/>
		<tag k="addr:street" v="Пајко Маало"/>
		<tag k="amenity" v="restaurant"/>
		<tag k="building" v="yes"/>
		<tag k="cuisine" v="regional"/>
		<tag k="fax" v="+389 2 3119668"/>
		<tag k="int_name" v="Restoran Stara Kuka"/>
		<tag k="name" v="Стара куќа"/>
		<tag k="name:en" v="Old House Restaurant"/>
		<tag k="outdoor_seating" v="yes"/>
		<tag k="phone" v="+389 2 3131376"/>
		<tag k="smoking" v="separated"/>
		<tag k="website" v="http://starakuka.com.mk/"/>
		<tag k="wheelchair" v="yes"/>
	</way>
	<way id="176331794" version="4" timestamp="2019-05-16T12:44:26Z" changeset="70317238" uid="158784" user="bjankuloski">
		<nd ref="459667519"/>
		<nd ref="1868702009"/>
		<nd ref="1868701938"/>
		<nd ref="1868701976"/>
		<nd ref="459667519"/>
		<tag k="addr:city" v="Cкoпje"/>
		<tag k="addr:city:en" v="Skopje"/>
		<tag k="addr:country" v="MK"/>
		<tag k="addr:postcode" v="1000"/>
		<tag k="amenity" v="restaurant"/>
		<tag k="building" v="yes"/>
		<tag k="int_name" v="Uranija"/>
		<tag k="name" v="Уранија"/>
	</way>
	<way id="176448667" version="3" timestamp="2017-02-26T20:05:12Z" changeset="46424667" uid="4358750" user="mariegorman">
		<nd ref="2323355486"/>
		<nd ref="1869864172"/>
		<nd ref="1869864074"/>
		<nd ref="1869864310"/>
		<nd ref="2323355486"/>
		<tag k="addr:city" v="Cкoпje"/>
		<tag k="addr:city:en" v="Skopje"/>
		<tag k="addr:country" v="MK"/>
		<tag k="addr:postcode" v="1000"/>
		<tag k="amenity" v="restaurant"/>
		<tag k="building" v="yes"/>
		<tag k="cuisine" v="chinese"/>
		<tag k="name" v="Ѕвезден Океан"/>
		<tag k="name:en" v="Star Ocean"/>
	</way>
	<way id="189975234" version="5" timestamp="2017-02-26T19:13:47Z" changeset="46423577" uid="4358750" user="mariegorman">
		<nd ref="2005843109"/>
		<nd ref="3861007622"/>
		<nd ref="3861007620"/>
		<nd ref="2005843205"/>
		<nd ref="2005843113"/>
		<nd ref="2005843099"/>
		<nd ref="2005843109"/>
		<tag k="addr:city" v="Cкoпje"/>
		<tag k="addr:city:en" v="Skopje"/>
		<tag k="addr:country" v="MK"/>
		<tag k="addr:postcode" v="1000"/>
		<tag k="amenity" v="restaurant"/>
		<tag k="building" v="yes"/>
		<tag k="name:en" v="Cafe Gorki"/>
	</way>
	<way id="236539239" version="3" timestamp="2015-07-11T09:32:04Z" changeset="32560858" uid="1468248" user="TheBlackMan">
		<nd ref="2445621590"/>
		<nd ref="2445621591"/>
		<nd ref="2445621592"/>
		<nd ref="2445621593"/>
		<nd ref="2445621590"/>
		<tag k="addr:city" v="Cкoпje"/>
		<tag k="addr:city:en" v="Skopje"/>
		<tag k="addr:country" v="MK"/>
		<tag k="addr:postcode" v="1000"/>
		<tag k="amenity" v="restaurant"/>
		<tag k="building" v="yes"/>
		<tag k="name" v="Рулет"/>
	</way>
	<way id="248508284" version="4" timestamp="2017-02-26T18:12:09Z" changeset="46422210" uid="4358750" user="mariegorman">
		<nd ref="2552845225"/>
		<nd ref="2323346377"/>
		<nd ref="2552845156"/>
		<nd ref="2552845237"/>
		<nd ref="2552845262"/>
		<nd ref="2552845143"/>
		<nd ref="4128439199"/>
		<nd ref="2552845225"/>
		<tag k="addr:city" v="Cкoпje"/>
		<tag k="addr:city:en" v="Skopje"/>
		<tag k="addr:country" v="MK"/>
		<tag k="addr:postcode" v="1000"/>
		<tag k="amenity" v="restaurant"/>
		<tag k="building" v="yes"/>
		<tag k="name" v="Sopotsko"/>
	</way>
	<way id="279392654" version="2" timestamp="2015-07-11T19:00:15Z" changeset="32568965" uid="1468248" user="TheBlackMan">
		<nd ref="2836006284"/>
		<nd ref="2836006285"/>
		<nd ref="2836006286"/>
		<nd ref="2836006287"/>
		<nd ref="2836006284"/>
		<tag k="addr:city" v="Cкoпje"/>
		<tag k="addr:city:en" v="Skopje"/>
		<tag k="addr:country" v="MK"/>
		<tag k="addr:postcode" v="1000"/>
		<tag k="amenity" v="restaurant"/>
		<tag k="building" v="yes"/>
		<tag k="cuisine" v="regional"/>
		<tag k="name" v="Kуќа"/>
	</way>
	<way id="305533452" version="3" timestamp="2017-09-04T08:36:49Z" changeset="51711178" uid="6594175" user="Lauvimui">
		<nd ref="3101725383"/>
		<nd ref="3101725384"/>
		<nd ref="3101725389"/>
		<nd ref="3101725385"/>
		<nd ref="3101725386"/>
		<nd ref="3101725383"/>
		<tag k="addr:city" v="Cкoпje"/>
		<tag k="addr:city:en" v="Skopje"/>
		<tag k="addr:country" v="MK"/>
		<tag k="addr:housenumber" v="36"/>
		<tag k="addr:postcode" v="1000"/>
		<tag k="addr:street" v="Кеј 13 Ноември"/>
		<tag k="amenity" v="restaurant"/>
		<tag k="building" v="yes"/>
		<tag k="name" v="Ресторан Кej"/>
		<tag k="name:en" v="Restoran Kej"/>
	</way>
	<way id="305647156" version="5" timestamp="2022-04-29T18:16:29Z" changeset="120359813" uid="13967439" user="DaisyMaisy">
		<nd ref="3103097500"/>
		<nd ref="3103097501"/>
		<nd ref="3103097502"/>
		<nd ref="3103097503"/>
		<nd ref="3103097500"/>
		<tag k="addr:city" v="Cкoпje"/>
		<tag k="addr:city:en" v="Skopje"/>
		<tag k="addr:country" v="MK"/>
		<tag k="addr:housenumber" v="4"/>
		<tag k="addr:postcode" v="1000"/>
		<tag k="addr:street" v="Горан Стефановски"/>
		<tag k="amenity" v="restaurant"/>
		<tag k="building" v="yes"/>
		<tag k="cuisine" v="regional;pizza"/>
		<tag k="name" v="Бравос"/>
	</way>
	<way id="332382509" version="3" timestamp="2017-02-27T13:18:35Z" changeset="46442216" uid="4358750" user="mariegorman">
		<nd ref="3484100382"/>
		<nd ref="3395009515"/>
		<nd ref="1866027761"/>
		<nd ref="3484100381"/>
		<nd ref="3484100382"/>
		<tag k="addr:city" v="Cкoпje"/>
		<tag k="addr:city:en" v="Skopje"/>
		<tag k="addr:country" v="MK"/>
		<tag k="addr:postcode" v="1000"/>
		<tag k="amenity" v="restaurant"/>
		<tag k="building" v="yes"/>
		<tag k="cuisine" v="regional"/>
		<tag k="name" v="Od Nas Za Vas"/>
		<tag k="takeaway" v="yes"/>
	</way>
	<way id="357827837" version="5" timestamp="2022-10-03T22:45:42Z" changeset="126961982" uid="6970734" user="Dekacc">
		<nd ref="3629466115"/>
		<nd ref="10073982790"/>
		<nd ref="10073982789"/>
		<nd ref="3629445633"/>
		<nd ref="3629442712"/>
		<nd ref="3629466115"/>
		<tag k="addr:city" v="Cкoпje"/>
		<tag k="addr:city:en" v="Skopje"/>
		<tag k="addr:country" v="MK"/>
		<tag k="addr:postcode" v="1000"/>
		<tag k="amenity" v="restaurant"/>
		<tag k="building" v="yes"/>
		<tag k="cuisine" v="italian"/>
		<tag k="name" v="Воденица"/>
		<tag k="name:en" v="Vodenica Mulino"/>
		<tag k="website" v="www.vodenicamulino.com.mk"/>
	</way>
	<way id="357827839" version="4" timestamp="2022-10-03T22:45:42Z" changeset="126961982" uid="6970734" user="Dekacc">
		<nd ref="3629444921"/>
		<nd ref="10073982790"/>
		<nd ref="3629466115"/>
		<nd ref="3629442283"/>
		<nd ref="3629466116"/>
		<nd ref="10073982788"/>
		<nd ref="10073982787"/>
		<nd ref="3629444921"/>
		<tag k="addr:city" v="Cкoпje"/>
		<tag k="addr:city:en" v="Skopje"/>
		<tag k="addr:country" v="MK"/>
		<tag k="addr:housenumber" v="79"/>
		<tag k="addr:postcode" v="1000"/>
		<tag k="addr:street" v="Митрополит Теодосиј Гологанов"/>
		<tag k="addr:street:en" v="Mitroplit Teodosij Gologanov"/>
		<tag k="amenity" v="restaurant"/>
		<tag k="building" v="yes"/>
		<tag k="cuisine" v="regional"/>
		<tag k="email" v="gostilnicadukat@gmail.com"/>
		<tag k="name" v="Дукат"/>
		<tag k="name:en" v="Gostilnica Dukat"/>
		<tag k="opening_hours" v="Mo-Fr 08:00-24:00; Sa,Su 00:00-01:00,08:00-24:00"/>
		<tag k="outdoor_seating" v="yes"/>
		<tag k="payment:coins" v="yes"/>
		<tag k="payment:diners_club" v="yes"/>
		<tag k="payment:maestro" v="yes"/>
		<tag k="payment:mastercard" v="yes"/>
		<tag k="payment:notes" v="yes"/>
		<tag k="payment:visa" v="yes"/>
		<tag k="phone" v="+389 2 3211011"/>
		<tag k="smoking" v="separated"/>
	</way>
	<way id="361977245" version="5" timestamp="2021-02-22T11:40:17Z" changeset="99742670" uid="7140745" user="MatejMecka">
		<nd ref="3663796405"/>
		<nd ref="3663796406"/>
		<nd ref="3663796407"/>
		<nd ref="3663796408"/>
		<nd ref="4434038380"/>
		<nd ref="3663796409"/>
		<nd ref="4434038385"/>
		<nd ref="3663796410"/>
		<nd ref="3663796405"/>
		<tag k="addr:city" v="Cкoпje"/>
		<tag k="addr:city:en" v="Skopje"/>
		<tag k="addr:country" v="MK"/>
		<tag k="addr:housenumber" v="34"/>
		<tag k="addr:postcode" v="1000"/>
		<tag k="addr:street" v="Партенија Зографски"/>
		<tag k="amenity" v="restaurant"/>
		<tag k="building" v="yes"/>
		<tag k="cuisine" v="regional"/>
		<tag k="name" v="Корнер / Баба Цана"/>
		<tag k="name:en" v="Korner / Baba Cana"/>
		<tag k="opening_hours" v="08:00 - 00:00"/>
		<tag k="phone" v="+38923126390;+38970386589"/>
	</way>
	<way id="363752338" version="4" timestamp="2019-02-19T22:40:56Z" changeset="67370606" uid="8600365" user="spuddy93">
		<nd ref="3678871841"/>
		<nd ref="3678871629"/>
		<nd ref="3678872133"/>
		<nd ref="3678872134"/>
		<nd ref="3678871841"/>
		<tag k="addr:city" v="Cкoпje"/>
		<tag k="addr:country" v="MK"/>
		<tag k="addr:housenumber" v="51"/>
		<tag k="addr:postcode" v="1000"/>
		<tag k="addr:street" v="Дебарца"/>
		<tag k="amenity" v="restaurant"/>
		<tag k="building" v="yes"/>
		<tag k="cuisine" v="regional"/>
		<tag k="name" v="Skopski Merak"/>
		<tag k="opening_hours" v="Mo-Su 00:00-01:00,08:00-24:00"/>
		<tag k="outdoor_seating" v="yes"/>
		<tag k="smoking" v="separated"/>
		<tag k="website" v="http://www.skopskimerak.mk/"/>
	</way>
	<way id="379884574" version="2" timestamp="2017-02-26T18:12:09Z" changeset="46422210" uid="4358750" user="mariegorman">
		<nd ref="3832333557"/>
		<nd ref="3832333559"/>
		<nd ref="3832333045"/>
		<nd ref="3832333047"/>
		<nd ref="3832333557"/>
		<tag k="addr:housenumber" v="14"/>
		<tag k="addr:street" v="Јордан Хаџиконстантинов Џинот"/>
		<tag k="amenity" v="restaurant"/>
		<tag k="building" v="yes"/>
		<tag k="name" v="Томче Софка"/>
		<tag k="name:en" v="Tomche Sofka"/>
		<tag k="tourism" v="hotel"/>
		<tag k="website" v="http://hotelimakedonija.com.mk/mk/Hotel/62/Hotel-Tomce-Sofka-Skopje"/>
	</way>
	<way id="379896010" version="2" timestamp="2017-02-26T15:46:44Z" changeset="46418619" uid="4358750" user="mariegorman">
		<nd ref="3832475129"/>
		<nd ref="3832475145"/>
		<nd ref="3832475144"/>
		<nd ref="3832475130"/>
		<nd ref="3832475129"/>
		<tag k="amenity" v="restaurant"/>
		<tag k="building" v="yes"/>
		<tag k="name" v="Калабалак"/>
	</way>
	<way id="388871332" version="4" timestamp="2022-11-11T11:00:41Z" changeset="128771511" uid="154757" user="Tr4sK">
		<nd ref="3920570915"/>
		<nd ref="3920570913"/>
		<nd ref="3920570902"/>
		<nd ref="3920570909"/>
		<nd ref="3920570915"/>
		<tag k="addr:city" v="Cкoпje"/>
		<tag k="addr:city:en" v="Skopje"/>
		<tag k="addr:country" v="MK"/>
		<tag k="addr:housenumber" v="22"/>
		<tag k="addr:postcode" v="1000"/>
		<tag k="addr:street" v="50-та дивизија"/>
		<tag k="addr:street:en" v="50 Divizija"/>
		<tag k="amenity" v="restaurant"/>
		<tag k="building" v="yes"/>
		<tag k="cuisine" v="regional"/>
		<tag k="email" v="contact@publicroom.org"/>
		<tag k="name" v="Јавна Соба"/>
		<tag k="name:en" v="Public Room"/>
		<tag k="name:nl" v="Open Huis"/>
		<tag k="name:tr" v="Public Room"/>
		<tag k="opening_hours" v="08:00-24:00"/>
		<tag k="phone" v="+389 2 6092650"/>
		<tag k="shop" v="art"/>
		<tag k="smoking" v="no"/>
		<tag k="website" v="http://publicroom.org/contact.html"/>
	</way>
	<way id="409026453" version="1" timestamp="2016-04-09T08:20:18Z" changeset="38423905" uid="1468248" user="TheBlackMan">
		<nd ref="4109201250"/>
		<nd ref="4109201248"/>
		<nd ref="4109201247"/>
		<nd ref="4109201249"/>
		<nd ref="4109201250"/>
		<tag k="addr:city" v="Cкoпje"/>
		<tag k="addr:city:en" v="Skopje"/>
		<tag k="addr:country" v="MK"/>
		<tag k="addr:postcode" v="1000"/>
		<tag k="addr:street" v="Париска"/>
		<tag k="addr:street:en" v="Pariska"/>
		<tag k="amenity" v="restaurant"/>
		<tag k="building" v="yes"/>
		<tag k="cuisine" v="regional"/>
		<tag k="email" v="info@olive.mk"/>
		<tag k="name" v="Restoran Olive"/>
		<tag k="opening_hours" v="Mo-Sa 09:00-24:00"/>
		<tag k="outdoor_seating" v="yes"/>
		<tag k="phone" v="+389 (0)2 3 06 66 23"/>
		<tag k="smoking" v="outside"/>
		<tag k="website" v="https://www.facebook.com/olive.skopje/"/>
		<tag k="wheelchair" v="yes"/>
	</way>
	<way id="445237139" version="2" timestamp="2017-02-26T15:59:54Z" changeset="46418907" uid="4358750" user="mariegorman">
		<nd ref="4426902650"/>
		<nd ref="4426902645"/>
		<nd ref="4426902647"/>
		<nd ref="3832475131"/>
		<nd ref="4426902653"/>
		<nd ref="4426902650"/>
		<tag k="amenity" v="restaurant"/>
		<tag k="building" v="yes"/>
		<tag k="name" v="Ла Тана"/>
	</way>
	<way id="445237140" version="2" timestamp="2017-02-26T15:59:54Z" changeset="46418907" uid="4358750" user="mariegorman">
		<nd ref="3832475141"/>
		<nd ref="4426902658"/>
		<nd ref="4426902661"/>
		<nd ref="4426902662"/>
		<nd ref="4426902663"/>
		<nd ref="3832475141"/>
		<tag k="amenity" v="restaurant"/>
		<tag k="building" v="yes"/>
		<tag k="name" v="Амиго"/>
	</way>
	<way id="445237144" version="2" timestamp="2017-02-26T15:59:54Z" changeset="46418907" uid="4358750" user="mariegorman">
		<nd ref="4426902661"/>
		<nd ref="4426902658"/>
		<nd ref="4426902651"/>
		<nd ref="4426902656"/>
		<nd ref="4426902659"/>
		<nd ref="1860365659"/>
		<nd ref="4426902661"/>
		<tag k="amenity" v="restaurant"/>
		<tag k="building" v="yes"/>
		<tag k="cuisine" v="regional"/>
		<tag k="name" v="Кај Злате"/>
	</way>
	<way id="445837935" version="2" timestamp="2017-02-27T18:41:51Z" changeset="46448745" uid="4358750" user="mariegorman">
		<nd ref="1999321631"/>
		<nd ref="4431829369"/>
		<nd ref="4431829371"/>
		<nd ref="4431829370"/>
		<nd ref="1999321631"/>
		<tag k="alt_name" v="Galerija 7"/>
		<tag k="amenity" v="restaurant"/>
		<tag k="building" v="yes"/>
		<tag k="cuisine" v="turkish"/>
		<tag k="int_name" v="Galerry 7"/>
		<tag k="name" v="Галерија 7"/>
	</way>
	<way id="474873952" version="4" timestamp="2019-05-25T22:52:02Z" changeset="70620946" uid="158784" user="bjankuloski">
		<nd ref="1810967608"/>
		<nd ref="4687349433"/>
		<nd ref="4687349434"/>
		<nd ref="4687349435"/>
		<nd ref="4687349436"/>
		<nd ref="4687349437"/>
		<nd ref="1810967608"/>
		<tag k="alt_name" v="Жабарот"/>
		<tag k="amenity" v="restaurant"/>
		<tag k="building" v="yes"/>
		<tag k="name" v="Кај Жабарот"/>
	</way>
	<way id="477026719" version="1" timestamp="2017-02-24T21:47:02Z" changeset="46380915" uid="2127961" user="BrookeEHarding">
		<nd ref="2717099203"/>
		<nd ref="3427393078"/>
		<nd ref="4704377563"/>
		<nd ref="2717099200"/>
		<nd ref="2717099203"/>
		<tag k="amenity" v="restaurant"/>
		<tag k="capacity" v="30"/>
		<tag k="cuisine" v="regional"/>
		<tag k="delivery" v="no"/>
		<tag k="name" v="Читална"/>
		<tag k="name:en" v="Chitalna"/>
		<tag k="smoking" v="outside"/>
	</way>
	<way id="477026724" version="2" timestamp="2021-09-25T20:46:59Z" changeset="111701196" uid="361707" user="0xF00F">
		<nd ref="4704379091"/>
		<nd ref="4704379090"/>
		<nd ref="4704379089"/>
		<nd ref="796178301"/>
		<nd ref="4704379091"/>
		<tag k="amenity" v="restaurant"/>
		<tag k="cuisine" v="regional"/>
		<tag k="int_name" v="Cardak"/>
		<tag k="name" v="Чардак"/>
		<tag k="name:en" v="Chardak"/>
		<tag k="outdoor_seating" v="yes"/>
	</way>
	<way id="477325813" version="2" timestamp="2018-05-18T10:59:46Z" changeset="59076210" uid="131662" user="borces">
		<nd ref="4706991214"/>
		<nd ref="4706991213"/>
		<nd ref="1928095824"/>
		<nd ref="1373103651"/>
		<nd ref="4706991214"/>
		<tag k="amenity" v="restaurant"/>
		<tag k="building" v="yes"/>
		<tag k="int_name" v="Naša Sofra"/>
		<tag k="is_in" v="Скопје"/>
		<tag k="name" v="Наша софра"/>
		<tag k="name:en" v="Nasha Sofra"/>
		<tag k="old_name" v="стоби"/>
	</way>
	<way id="477325815" version="1" timestamp="2017-02-26T17:51:25Z" changeset="46421642" uid="4358750" user="mariegorman">
		<nd ref="4706991220"/>
		<nd ref="4706991219"/>
		<nd ref="4706991218"/>
		<nd ref="418875414"/>
		<nd ref="4706991220"/>
		<tag k="amenity" v="restaurant"/>
		<tag k="building" v="yes"/>
		<tag k="name" v="Дебар Маало"/>
	</way>
	<way id="477325816" version="4" timestamp="2019-03-01T16:52:42Z" changeset="67692616" uid="4240913" user="Corban8">
		<nd ref="1373110858"/>
		<nd ref="4706991223"/>
		<nd ref="5626433464"/>
		<nd ref="5626433485"/>
		<nd ref="4706991222"/>
		<nd ref="4706991221"/>
		<nd ref="1373110858"/>
		<tag k="addr:city" v="Cкoпje"/>
		<tag k="addr:city:en" v="Skopje"/>
		<tag k="addr:country" v="MK"/>
		<tag k="addr:housenumber" v="3"/>
		<tag k="addr:postcode" v="1000"/>
		<tag k="addr:street" v="Отон Жупанчич"/>
		<tag k="amenity" v="restaurant"/>
		<tag k="building" v="yes"/>
		<tag k="cuisine" v="regional"/>
		<tag k="email" v="gurmet@restorani.com.mk"/>
		<tag k="int_name" v="Gurmet"/>
		<tag k="name" v="Гурмет"/>
		<tag k="opening_hours" v="09:00-24:00, Fr-Sa 09:00-01:00"/>
		<tag k="payment:maestro" v="yes"/>
		<tag k="payment:mastercard" v="yes"/>
		<tag k="payment:visa" v="yes"/>
	</way>
	<way id="477325818" version="2" timestamp="2019-02-27T13:22:43Z" changeset="67617675" uid="480208" user="Svetle">
		<nd ref="4706991229"/>
		<nd ref="1373110836"/>
		<nd ref="4706991228"/>
		<nd ref="4706991227"/>
		<nd ref="4706991229"/>
		<tag k="addr:city" v="Cкoпje"/>
		<tag k="addr:housenumber" v="87"/>
		<tag k="addr:postcode" v="1000"/>
		<tag k="addr:street" v="Мирослав Крлежа"/>
		<tag k="amenity" v="restaurant"/>
		<tag k="building" v="yes"/>
		<tag k="name" v="Наџак"/>
	</way>
	<way id="477325825" version="2" timestamp="2019-12-02T19:01:51Z" changeset="77838965" uid="10517616" user="DemonHyper">
		<nd ref="4706991250"/>
		<nd ref="4706991249"/>
		<nd ref="4706991248"/>
		<nd ref="1138894760"/>
		<nd ref="4706991250"/>
		<tag k="alt_name" v="Канцеларија"/>
		<tag k="amenity" v="restaurant"/>
		<tag k="building" v="yes"/>
		<tag k="int_name" v="Kancelarija"/>
		<tag k="name" v="Kancelarija"/>
		<tag k="name:mk" v="Канцеларија"/>
	</way>
	<way id="477325827" version="1" timestamp="2017-02-26T17:51:27Z" changeset="46421642" uid="4358750" user="mariegorman">
		<nd ref="4706991255"/>
		<nd ref="4706991254"/>
		<nd ref="4706991253"/>
		<nd ref="2411332043"/>
		<nd ref="4706991255"/>
		<tag k="amenity" v="restaurant"/>
		<tag k="building" v="yes"/>
		<tag k="int_name" v="Čamo"/>
		<tag k="name" v="Чамо"/>
		<tag k="name:en" v="Chamo"/>
	</way>
	<way id="477325830" version="2" timestamp="2019-03-01T16:52:42Z" changeset="67692616" uid="4240913" user="Corban8">
		<nd ref="4706991264"/>
		<nd ref="4706991262"/>
		<nd ref="4706991263"/>
		<nd ref="1577162234"/>
		<nd ref="4706991264"/>
		<tag k="addr:housenumber" v="4"/>
		<tag k="addr:street" v="Ѓорѓи Пешков"/>
		<tag k="alt_name" v="Ганза"/>
		<tag k="amenity" v="restaurant"/>
		<tag k="building" v="yes"/>
		<tag k="int_name" v="Ganza"/>
		<tag k="name" v="Ganza"/>
	</way>
	<way id="477325836" version="3" timestamp="2019-02-19T22:40:57Z" changeset="67370606" uid="8600365" user="spuddy93">
		<nd ref="3779543187"/>
		<nd ref="4706991280"/>
		<nd ref="4706991281"/>
		<nd ref="4706991282"/>
		<nd ref="3779543187"/>
		<tag k="addr:city" v="Cкoпje"/>
		<tag k="addr:country" v="MK"/>
		<tag k="addr:housenumber" v="53"/>
		<tag k="addr:postcode" v="1000"/>
		<tag k="addr:street" v="Дебарца"/>
		<tag k="amenity" v="restaurant"/>
		<tag k="building" v="yes"/>
		<tag k="cuisine" v="regional"/>
		<tag k="name" v="Antica"/>
		<tag k="outdoor_seating" v="yes"/>
	</way>
	<way id="482846770" version="2" timestamp="2018-05-18T10:59:45Z" changeset="59076210" uid="131662" user="borces">
		<nd ref="4706991280"/>
		<nd ref="4756328635"/>
		<nd ref="4756328633"/>
		<nd ref="4756328634"/>
		<nd ref="4706991281"/>
		<nd ref="4706991280"/>
		<tag k="amenity" v="restaurant"/>
		<tag k="leisure" v="outdoor_seating"/>
		<tag k="operator" v="Antica"/>
	</way>
	<way id="496423192" version="2" timestamp="2020-10-26T12:11:47Z" changeset="93060647" uid="273212" user="Jakub Trojan">
		<nd ref="4881325502"/>
		<nd ref="4881325501"/>
		<nd ref="4881325497"/>
		<nd ref="4881325498"/>
		<nd ref="4881325502"/>
		<tag k="addr:city" v="Cкoпje"/>
		<tag k="addr:housenumber" v="18"/>
		<tag k="addr:postcode" v="1000"/>
		<tag k="addr:street" v="Булевар 8-ми Септември"/>
		<tag k="amenity" v="restaurant"/>
		<tag k="building" v="roof"/>
		<tag k="name" v="Барбакан"/>
		<tag k="name:en" v="Barbakan"/>
		<tag k="opening_hours" v="08:00-01:00"/>
		<tag k="outdoor_seating" v="yes"/>
	</way>
	<way id="547074226" version="4" timestamp="2021-04-10T17:15:57Z" changeset="102708306" uid="7140745" user="MatejMecka">
		<nd ref="5286112836"/>
		<nd ref="8615428192"/>
		<nd ref="5286112837"/>
		<nd ref="5286112838"/>
		<nd ref="8615409558"/>
		<nd ref="5286112839"/>
		<nd ref="5286112836"/>
		<tag k="amenity" v="restaurant"/>
		<tag k="building" v="yes"/>
		<tag k="name" v="4 Angeli"/>
		<tag k="opening_hours" v="Mo-Sa 08:00-24:00"/>
	</way>
	<way id="829988369" version="2" timestamp="2022-10-04T20:34:06Z" changeset="127015237" uid="6970734" user="Dekacc">
		<nd ref="7746515804"/>
		<nd ref="10075846133"/>
		<nd ref="10075846128"/>
		<nd ref="10075846132"/>
		<nd ref="10075846130"/>
		<nd ref="10075846129"/>
		<nd ref="10075846131"/>
		<nd ref="5302657820"/>
		<nd ref="10075846134"/>
		<nd ref="7746515805"/>
		<nd ref="7746515806"/>
		<nd ref="10075846150"/>
		<nd ref="10075846151"/>
		<nd ref="7746515807"/>
		<nd ref="10075846153"/>
		<nd ref="7746515804"/>
		<tag k="amenity" v="restaurant"/>
		<tag k="building" v="yes"/>
	</way>
</osm>
